"Name","Url","DataSource","ExtractedDate","Firm_","Phone","Fax","Address","Contact","Position","Mobile_No_","PostalAddress","Email","Conditions","Maintenance_and_General_Works_Group","Traffic_Management_Services_contract_Groups","PrequalificationCategories","Letter"
"A J Williams Group Pty Ltd","https://webapps.vicroads.vic.gov.au/vrne/prequal.nsf/b5fea222939e6f00ca25783e000334ef/1569dabaa85a1b14ca257526007a6485?OpenDocument","Fresh","2026-01-21 15:54:12","A J Williams Group Pty Ltd","(03) 5345 6455","(03) 5345 6494","44 Smyth Street, ALLENDALE VIC 3364","Mr Andrew Williams","Managing Director","0412 834 856","P O Box 239, CRESWICK VIC 3363&nbsp","admin@ajwilliamsgroup.com.au","A J Williams Group Pty Ltd (ACN: 075 085 960)  - 1 Third Avenue, SUNSHINE  VIC 3020","Maintenance: Maintenance Bridges (M2-BW), Maintenance Pavements (M2-PW), Maintenance Roadsides (M2-RW)","Traffic Control Systems Supply & Maintenance; a: SCTV- Closed Circuit Television, SCTV - Communications, SSLC - Street Lighting & Conduit Installation, STCE - Traffic Control Equipment, STCE 1 - Traffic Control Equipment 1, STCE 2 - Traffic Control Equipment 2, STS - Traffic Signals, STS1 - Traffic Signals Installation, STS2 - Traffic Signals Maintenance, SVDL - Vehicle Detection Loops","BW, M2-BW, M2-PW, M2-RW, PW, RW, SCTV, SSLC, STCE, STS, STS1, STS2, SVDL","A"
"A Plus Traffic Management**","https://webapps.vicroads.vic.gov.au/vrne/prequal.nsf/b5fea222939e6f00ca25783e000334ef/656ec25e3da9214cca2580080083c95d?OpenDocument","Fresh","2026-01-21 15:54:13","LJ & LJ Pty Ltd","0439 002 343",,"177 Queen Street, WARRAGUL VIC 3820","Mr Lloyd Burgmann","Director","0439 002 484","PO Box 190, WARRAGUL VIC 3820&nbsp","admin@aplustraffic.com.au",,,,,"A"
"A S James Pty Ltd","https://webapps.vicroads.vic.gov.au/vrne/prequal.nsf/b5fea222939e6f00ca25783e000334ef/e8ed7c03b7048e60ca256d0a0007352c?OpenDocument","Fresh","2026-01-21 15:54:13","A S James Pty Ltd","9547 4811.","9547 5393","15 Libbett Avenue, CLAYTON SOUTH VIC 3806","Mr Daniel Gunn",,,"""As Above""&nbsp","danielg@asjames.com.au",,,,"AND, FPD1, M1, ND1, PT1, PT2, RM1","A"
"A W Evans (Evans Earthmoving)**","https://webapps.vicroads.vic.gov.au/vrne/prequal.nsf/b5fea222939e6f00ca25783e000334ef/53362b0ad554678cca258a51001781df?OpenDocument","Fresh","2026-01-21 15:54:14","Deja Eight Pty Ltd","03 5236 6593","03 5236 6003","25 Turner Drive, FORREST VIC 3236","Mr Peter Moroney","Business Manager","0411 863 286","""As Above"", &nbsp","peterm@evansearthmoving.biz",,,,"B1, F005, R1","A"
"A1 Asphalting Pty Ltd","https://webapps.vicroads.vic.gov.au/vrne/prequal.nsf/b5fea222939e6f00ca25783e000334ef/aa5a3147fac82c1bca257bad000baab5?OpenDocument","Fresh","2026-01-21 15:54:15","A1 Asphalting Pty Ltd","(03) 5625 3066","(03) 5625 5420","50 Parinda Road, DROUIN VIC 3818","Mr Kim McGill","General Manager","0400 829 287","PO BOX 188, DROUIN, VIC 3818&nbsp","kim@a1group.com.au",,"Maintenance: Maintenance Works-Minor (M1); General Works: Road Surfacing Asphalt (G2-RSA)",,"M1, ROAD, RSA, WORKS-MINOR","A"
"A1 Civil Pty Ltd","https://webapps.vicroads.vic.gov.au/vrne/prequal.nsf/b5fea222939e6f00ca25783e000334ef/174b8795632736f2ca257db70017ff9e?OpenDocument","Fresh","2026-01-21 15:54:15","A1 Civil Pty Ltd","(03) 56 253 066","(03) 56 255 420","12 Weerong Road, DROUIN VIC 3818","Mr Kim McGill","Director","0400 829 287","P O Box 188, DROUIN VIC 3818&nbsp","kim@a1group.com.au",,,,"F005, R1","A"
"A1 Highways Pty Ltd","https://webapps.vicroads.vic.gov.au/vrne/prequal.nsf/b5fea222939e6f00ca25783e000334ef/1ef451d6050c4468ca257d1f001c5f55?OpenDocument","Fresh","2026-01-21 15:54:16","A1 Highways Pty Ltd","(07) 38047912","(07) 3803 7201","3-9 Octal St, YATALA QLD 4207","Mr Mick Lunn","Managing Director",,"""As Above"", &nbsp","sales@A1highways.com.au",,"Maintenance: Maintenance Works-Minor (M1); General Works: General Works-Minor (G1), Guardfence (G2-GF), Sign Erection-Major (G2-SE)",,"ERECTION-MAJOR, GF, M1, SE, SIGN, WORKS-MINOR","A"
"A1 Traffic Management**","https://webapps.vicroads.vic.gov.au/vrne/prequal.nsf/b5fea222939e6f00ca25783e000334ef/d7318284ae904871ca2573c90005f58c?OpenDocument","Fresh","2026-01-21 15:54:16","Skyrider Tower Hire Pty Ltd","(03) 5339 1010","(03) 5339 1869","Shed 4, 319 Learmonth Road, WENDOUREE VIC 3355","Mr Randall Coates","Operations Manager","0429 959 088","P.O. Box 112, WENDOUREE VIC 3355&nbsp","a1traffic@a1traffic.com.au",,,,,"A"
"AAM Pty Ltd","https://webapps.vicroads.vic.gov.au/vrne/prequal.nsf/b5fea222939e6f00ca25783e000334ef/9b606d6170503ac7ca257eac0004af8d?OpenDocument","Fresh","2026-01-21 15:54:17","AAM Pty Ltd","(03) 9572 8750","(03) 9572 8751","90 Camberwell Road, HAWTHORN EAST VIC 3123","Mr Ken Gillian","Business development","0488 579 686","""As Above"", &nbsp","info@aamgroup.com",,,,"AP, PM","A"
"ABC Traffic Management Pty Ltd","https://webapps.vicroads.vic.gov.au/vrne/prequal.nsf/b5fea222939e6f00ca25783e000334ef/3ca2f76a4c003832ca257a0c002bd1ae?OpenDocument","Fresh","2026-01-21 15:54:18","ABC Traffic Management Pty Ltd","(03) 9727 0344","(03) 9727 0255","266-268 Maroondah Highway, CHIRNSIDE PARK VIC 3116","Mr Jack Furey","Operations Manager","0447 444 700","P O Box 8097, CROYDON VIC 3136&nbsp","reception@abccivilgroup.com.au",,,,,"A"
"ABD Group Construction Pty Ltd","https://webapps.vicroads.vic.gov.au/vrne/prequal.nsf/b5fea222939e6f00ca25783e000334ef/5104130b8de60d60ca258431007e41e8?OpenDocument","Fresh","2026-01-21 15:54:18","ABD Group Construction Pty Ltd","03 8336 1504","03 8336 1503","Level 1, 99 Queensbridge Street, SOUTHBANK VIC 3006","Mr Richard Cutler","Operations Manager","0413 543 121","""As Above"", &nbsp","richardc@abdgroup.com.au",,,,,"A"
"Abergeldie Contractors Pty Ltd","https://webapps.vicroads.vic.gov.au/vrne/prequal.nsf/b5fea222939e6f00ca25783e000334ef/8e4c98fcf7342298ca2578610007a86e?OpenDocument","Fresh","2026-01-21 15:54:19","Abergeldie Contractors Pty Ltd","02 8717 7777",,"5 George Young Street, REGENTS PARK, NSW 2143","Mr Claudoi Garrido","General Manager Pre-Contracts","0425 247 649","""As Above"", &nbsp","cgarrido@abergeldie.com",,,,"B4, F150+, R4","A"
"Absafe Pty Ltd","https://webapps.vicroads.vic.gov.au/vrne/prequal.nsf/b5fea222939e6f00ca25783e000334ef/687aa3f0b676d301ca25818c00166b46?OpenDocument","Fresh","2026-01-21 15:54:19","Absafe Pty Ltd","03 9486 3777",,"106 Gipps Street, COLLINGWOOD VIC 3066","Mr Andrew Caddy","Director",,"""As Above"", &nbsp","andy@absafe.com.au",,"Maintenance: Maintenance Bridges (M2-BW)",,"BW, M2-BW","A"
"Absolute Civil Constructions (Vic) Pty Ltd","https://webapps.vicroads.vic.gov.au/vrne/prequal.nsf/b5fea222939e6f00ca25783e000334ef/2d31c1caddff7232ca257a980007938f?OpenDocument","Fresh","2026-01-21 15:54:20","Absolute Civil Constructions (Vic) Pty Ltd","03 9462 5660","03 9462 5660","Unit 8 / 7 Dunstans Court, THOMASTOWN VIC 3074","Mr Peter Konstan","Director","0421 541 102","PO Box 474, RESERVOIR VIC 3073&nbsp","peter@absolutecivilconstruction.com.au",,,,"F002, R2","A"
"Acciona Construction Australia Pty Ltd","https://webapps.vicroads.vic.gov.au/vrne/prequal.nsf/b5fea222939e6f00ca25783e000334ef/fadf54ddc544c5e7ca2581e1001573a1?OpenDocument","Fresh","2026-01-21 15:54:21","Acciona Construction Australia Pty Ltd","03 9624 4200","03 9624 4201","11 Eastern Roadt, SOUTH MELBOURNE VIC 3205","Ms Catherine Eymin","Head of Origination - Southern Region","+61 429967801","""As Above"", &nbsp","catherine.eymin@acciona.com",,,,"B4, F150+, R5","A"
"Acciona Engineering and Design Australia Pty Ltd","https://webapps.vicroads.vic.gov.au/vrne/prequal.nsf/b5fea222939e6f00ca25783e000334ef/4d6d11e306b41fa5ca258b180017546b?OpenDocument","Fresh","2026-01-21 15:54:21","Acciona Engineering and Design Australia Pty Ltd","03 9624 4200",,"Level 3, 11 Eastern Road, South Melbourne, VIC 3027","Mr Pablo Guardiolal Molla","General Manager","0416 831 683","""As Above"", &nbsp","pablo.guardiola@acciona.com",,,,"DES, GT, GT-DES, H-SIMPLE, SH, SS, STRUCTURES-SIMPLE","A"
"Acciona Rail Pty Ltd","https://webapps.vicroads.vic.gov.au/vrne/prequal.nsf/b5fea222939e6f00ca25783e000334ef/71363cca5219a119ca258973007dc293?OpenDocument","Fresh","2026-01-21 15:54:22","Acciona Rail Pty Ltd","(03) 9624 4210",,"174 Turner Street, PORT MELBOURNE VIC 3207","Mr Sean Bonham","Executive General Manager","0404 811 529","""As Above"", &nbsp","sean@colemanrail.com.au",,,,"B4, F150, R3","A"
"ACE Earthmoving Pty Ltd","https://webapps.vicroads.vic.gov.au/vrne/prequal.nsf/b5fea222939e6f00ca25783e000334ef/7ff13d4bd3382366ca25833900037e89?OpenDocument","Fresh","2026-01-21 15:54:22","ACE Earthmoving Pty Ltd","03 5134 8692","N/A","44 Wells Road, MIRBOO NORTH VIC 3871","Mr Karl Loh","Director","0418 544 849","PO Box 709, MORWELL VIC 3840&nbsp","admin@aceearthmoving.com.au",,,,"F002, R1","A"
"Ace Electrical Infrastructure Pty Ltd","https://webapps.vicroads.vic.gov.au/vrne/prequal.nsf/b5fea222939e6f00ca25783e000334ef/181ea7dc5dfb95f1ca257f1600071199?OpenDocument","Fresh","2026-01-21 15:54:23","Ace Electrical Infrastructure Pty Ltd","( 03 ) 9431 3944","( 03 ) 9431 3842","11-13 Moncrief Road, NUNAWADING VIC 3131","Mr Randhir Kumar","General Manager","0400 340 057","""As Above""&nbsp","rkumar@acecon.com.au",,,"Traffic Control Systems Supply & Maintenance; a: SSLC - Street Lighting & Conduit Installation, STCE 1 - Traffic Control Equipment 1","SSLC, STCE","A"
"Ace Energy Services Pty Ltd","https://webapps.vicroads.vic.gov.au/vrne/prequal.nsf/b5fea222939e6f00ca25783e000334ef/b4cc5c70eeae857aca257fbd0029fe2e?OpenDocument","Fresh","2026-01-21 15:54:24","Ace Energy Services Pty Ltd","(03) 9737 4747","F (03) 9761 8049","185 -191 Liverpool Road, KILSYTH VIC 3137","Miss kerry Jackson","Manager, HP & Finance","0417 835 006","""As Above"", &nbsp","kerryj@itsace.com.au",,,"Traffic Control Systems Supply & Maintenance; a: SSLC - Street Lighting & Conduit Installation, STCE 1 - Traffic Control Equipment 1","SSLC, STCE","A"
"Ace Infrastructure Pty Ltd","https://webapps.vicroads.vic.gov.au/vrne/prequal.nsf/b5fea222939e6f00ca25783e000334ef/f6fc427cee842faeca25794f00075702?OpenDocument","Fresh","2026-01-21 15:54:44","Ace Infrastructure Pty Ltd","(03) 9431 3944","(03) 9431 3842","11-13 Moncrief Road, NUNAWADING VIC 3131","Mr Geoffrey Frost","Company Secretary","0425 730 059","""As Above"", &nbsp","info@acecon.com.au",,,,"B3, F050, R4","A"
"Ace Traffic solutions**","https://webapps.vicroads.vic.gov.au/vrne/prequal.nsf/b5fea222939e6f00ca25783e000334ef/272b9dc844bedeb1ca257b50002825f8?OpenDocument","Fresh","2026-01-21 15:54:44","Ace Tree Management Pty Ltd","(03) 9237 1000","(03) 9761 8035","185-191 Liverpool Road, KILSYTH, VIC 3137","Mr Douglas Hamilton","HSEQ Manager","0448 338 122","""As Above"", &nbsp","ace.traffic@aceenergy.com.au",,,,,"A"
"Ace Tree Management**","https://webapps.vicroads.vic.gov.au/vrne/prequal.nsf/b5fea222939e6f00ca25783e000334ef/d024894ef1103613ca25740f001fa0dc?OpenDocument","Fresh","2026-01-21 15:54:45","V & GL Calvi Pty Ltd","(03) 9736 1366","(03) 9736 1447","191A Liverpool Road, KILSYTH VIC 3137","Ms Marion Hamilton","Senior Executive Officer","0488 434 559","""As Above"", &nbsp","marion.hamilton@aceenergy.com.au",,"Maintenance: Maintenance Roadsides (M2-RW), Maintenance Works-Minor (M1)",,"M1, M2-RW, RW, WORKS-MINOR","A"
"ACOR Consultants (VIC) Pty Ltd","https://webapps.vicroads.vic.gov.au/vrne/prequal.nsf/b5fea222939e6f00ca25783e000334ef/59c57b68087addc5ca25857c001be5d7?OpenDocument","Fresh","2026-01-21 15:54:46","ACOR Consultants (VIC) Pty Ltd","03 9885 4335",,"Level 1, 173 Burke Road, GLEN IRIS VIC 3146","Mr Dipendra Sharma","Associate ? Civil Team Leader","0428 987 810","""As Above"", &nbsp","dsharma@acor.com.au",,,,"H-SIMPLE, SH","A"
"Active Excavations Pty Ltd","https://webapps.vicroads.vic.gov.au/vrne/prequal.nsf/b5fea222939e6f00ca25783e000334ef/6cbba5618880360eca256d0b001672a4?OpenDocument","Fresh","2026-01-21 15:54:46","Active Excavations Pty Ltd","(03) 5435 2100",,"482 Allies Road, MAIDEN GULLY VIC 3551","Mr Harry Shaw","Director","0408 855 581","PO BOX 1013, MAIDEN GULLY VIC 3551&nbsp","info@activehry.com.au",,,,"F005, R2","A"
"Active Traffic Management Pty Ltd","https://webapps.vicroads.vic.gov.au/vrne/prequal.nsf/b5fea222939e6f00ca25783e000334ef/29323a0944fa4395ca2575fd000275ee?OpenDocument","Fresh","2026-01-21 15:54:47","Active Traffic Management Pty Ltd","(03) 9704 6888",,"15b Corporate Terrace, PAKENHAM VIC 3810","Ms Sharon Doubaras","Director","0400 225 855","""As Above""&nbsp","sharon@activetraffic.com.au",,,,,"A"
"ADC Civil Pty Ltd","https://webapps.vicroads.vic.gov.au/vrne/prequal.nsf/b5fea222939e6f00ca25783e000334ef/8f4c9eb351c6117dca258218008146b3?OpenDocument","Fresh","2026-01-21 15:54:47","ADC Civil Pty Ltd",,"03 5281 1784","10 Lucien Court, BANNOCKBURN VIC 3331","Mr Shane Andrews","Director","0414 673 768","P O Box 354, BANNOCKBURN VIC 3331&nbsp","shane@adccivil.com",,,,"F001, R1","A"
"ADE Consulting Group (Vic) Pty Ltd","https://webapps.vicroads.vic.gov.au/vrne/prequal.nsf/b5fea222939e6f00ca25783e000334ef/b60931ce1181e0afca2583990073a20a?OpenDocument","Fresh","2026-01-21 15:54:48","ADE Consulting Group (Vic) Pty Ltd","1300 796 922",,"4/95 Salmon Street, PORT MELBOURNE VIC 3207","Mr Bruce Tehrani","General Manager","0450 380 414","""As Above"", &nbsp","info@ade.group",,,,"GT, GT-INV, INV","A"
"Adept Drainage Pty Ltd","https://webapps.vicroads.vic.gov.au/vrne/prequal.nsf/b5fea222939e6f00ca25783e000334ef/6e11445390444558ca257cf3001cb546?OpenDocument","Fresh","2026-01-21 15:54:49","Adept Drainage Pty Ltd","(03) 9863 9530","(03) 9863 9540","Suite 1112/1 Queens Road, Melbourne 3004","Mr Mark Seen","Project Engineer","0406791254","""As Above"", &nbsp","info@adeptdrainage.com.au",,,,,"A"
"ADG Engineers (Aust) Pty Ltd","https://webapps.vicroads.vic.gov.au/vrne/prequal.nsf/b5fea222939e6f00ca25783e000334ef/746551741c598c21ca2582020082cb54?OpenDocument","Fresh","2026-01-21 15:54:49","ADG Engineers (Aust) Pty Ltd","1300 657 402","(03) 9269 6310","321 / 838 Collins Street, DOCKLANDS VIC 3008","Ms Vanessa McHugh","Quality Manager",,"""As Above"", &nbsp","info@adgce.com",,,,"SS, STRUCTURES-SIMPLE","A"
"Advanced Traffic Management Pty Ltd","https://webapps.vicroads.vic.gov.au/vrne/prequal.nsf/b5fea222939e6f00ca25783e000334ef/1cae2077ec5ff583ca25796a0080475c?OpenDocument","Fresh","2026-01-21 15:54:50","Advanced Traffic Management Pty Ltd","1300 688 575","(03) 8768 8575","45A Rimfire Drive, Hallam. Victoria 3803","Mr Jason Sant","Chief Executive Officer","0497975 588","P O Box 171, LYNDHURST VIC 3975&nbsp","plans@advanced-traffic.com.au",,,,,"A"
"Advantia Transport Consulting**","https://webapps.vicroads.vic.gov.au/vrne/prequal.nsf/b5fea222939e6f00ca25783e000334ef/4aa1201d5905312dca258566001fc4ac?OpenDocument","Fresh","2026-01-21 15:54:50","Jalavica Pty Ltd","03 9438 6790",,"30/240 Plenty Road, BUNDDORA VIC 3083","Mr Victor Trumper","Managing Director","0466 071 508","PO Box 680, GREENSBOROUGH VIC 3088&nbsp","victor@advantia.com.au",,,,"DBS, FVA, PRN, PRS, ROAD","A"
"AECOM Australia Pty Ltd","https://webapps.vicroads.vic.gov.au/vrne/prequal.nsf/b5fea222939e6f00ca25783e000334ef/bd9249a956fbf005ca256d5d0000b267?OpenDocument","Fresh","2026-01-21 15:54:51","AECOM Australia Pty Ltd","(03) 9653 1234","(03) 9654 7117","Level 10, Tower 2,, 727 Collins Street, MELBOURNE VIC 3008","Ms Stephanie Wilson","Associate Director - Highways","+61 488 379 581","""As Above"", &nbsp","stephanie.wilson1@aecom.com",,,,"AFF, AIR, AND, AQMD, CE, CH, COST, CS, DBS, DES, DMR, DSD, EA, EAC, E-AFF, E-AQMD, E-EAC, E-EMS, EES, EESM, EESW, EMS, E-NMD, EPM, E-TFL, FD, FIR, FPD1, FPD2, FPR, FVR, GAIN, GT, GT-DES, GT-GWH, GT-INV, GT-PRE, GWH, HC, H-COMPLEX, H-SIMPLE, INV, LAND, LU, LVI, M1, M2, M3, M4, ND1, ND2, ND3, NET, NMD, OF, PAM, PAR, PE, PNM, PRE, PRL, PRN, PRS, PSA, PSAD, PSAM, PT1, PT2, RE, RISK, RM, RM1, RM2, RM3, RM4, ROAD, RPD, RPR, RR, SH, SI, SS, ST, STRUCTURES-COMPLEX, STRUCTURES-SIMPLE, TAR, TCA, TFL, TLD, TM, TMC, TOF, TOS, TPF, TSD, TSM, TTF, UR, USE, WSRD","A"
"AECOM Services Pty Ltd","https://webapps.vicroads.vic.gov.au/vrne/prequal.nsf/b5fea222939e6f00ca25783e000334ef/331d6476f5512f92ca258b2e00189a8d?OpenDocument","Fresh","2026-01-21 15:54:52","AECOM Services Pty Ltd","1800 868 654",,"Level 10, Tower 2/727 Collins St, Docklands Vic 3008","Mr Peter Robinson","Associate Director - Structures","0499 987 241","""As Above"", &nbsp","peter.a.robinon@aecom.com",,,,"BI2","A"
"Agile Safety &amp; Traffic**","https://webapps.vicroads.vic.gov.au/vrne/prequal.nsf/b5fea222939e6f00ca25783e000334ef/ff5cb4601f5f3e36ca2587580019ccd7?OpenDocument","Fresh","2026-01-21 15:54:52","Agile Group (Global) Pty LTD","1300 964 007","1300 035 997","Unit 1, 358 Foleys Road , DEER PARK VIC 3023","Mr Dean Faranda","Business Manager, Victoria & South Australia","0419 921 138","U1/31-35 George Street, THEBARTON SA 5031&nbsp","Engagement@agilegroup.com.au",,,,,"A"
"Agile Services Pty Ltd","https://webapps.vicroads.vic.gov.au/vrne/prequal.nsf/b5fea222939e6f00ca25783e000334ef/a60be1459f949a5dca257ec1001aef89?OpenDocument","Fresh","2026-01-21 15:54:53","Agile Services Pty Ltd","1300 424 453",,"46-48 Capital Link Drive, CAMPBELLFIELD VIC 3061","Mr Christopher Brown","Operations Manager","0419 002 791","""As Above"", &nbsp","admin@agileservices.com.au",,,,,"A"
"AIG Just Traffic Pty Ltd","https://webapps.vicroads.vic.gov.au/vrne/prequal.nsf/b5fea222939e6f00ca25783e000334ef/928d3454a945fc5cca257b8e0026e129?OpenDocument","Fresh","2026-01-21 15:54:54","AIG Just Traffic Pty Ltd","(03) 8616 0618","(03) 86160621","35 Hancock Street, SOUTHBANK VIC 3006","Mr Paul Simmons","Director","0411 988 993","""As Above"", &nbsp","dustan.m@aigsolutions.com.au",,,,,"A"
"AlbCon Pty Ltd","https://webapps.vicroads.vic.gov.au/vrne/prequal.nsf/b5fea222939e6f00ca25783e000334ef/1734a6e241d26347ca25809700121769?OpenDocument","Fresh","2026-01-21 15:54:54","AlbCon Pty Ltd","(03) 5155 2626","(03) 5155 1796","6 Tea Tree Lane, LAKE BUNGA VIC 3909","Mr Matthew Albert","Projects / Works Manager","0418 149 820","P O Box 437, LAKES ENTRANCE VIC 3909&nbsp","matt@albcon.com.au",,,,"F002, R1","A"
"Aldridge Electrical Industries Pty Ltd","https://webapps.vicroads.vic.gov.au/vrne/prequal.nsf/b5fea222939e6f00ca25783e000334ef/93054a42a3df5ea8ca2570ff001d35ae?OpenDocument","Fresh","2026-01-21 15:54:55","Aldridge Electrical Industries Pty Ltd","(02) 9540 9966","(02) 9540 3399","Unit 10-16 Sir Joseph Banks Drive, Kurnell 2231","Mr Peter Aldridge","Managing Director","0418 266 874","PO BOX 380, GYMEA NSW 2227&nbsp","peter@aldridge.com.au",,,"Traffic Control Systems Supply & Maintenance; a: SOED - Supply of On-Road Electronic Devices","OF, ON, ON-ROAD, ROAD, SOED","A"
"Aldridge Traffic Controllers Pty Ltd","https://webapps.vicroads.vic.gov.au/vrne/prequal.nsf/b5fea222939e6f00ca25783e000334ef/123374efe88fa5caca2574090081fc4d?OpenDocument","Fresh","2026-01-21 15:54:55","Aldridge Traffic Controllers Pty Ltd","02 8846 5500","02 8846 5590","Unit N, 10 - 16 South St, Rydalmere, NSW 2116","Mr Paul Milazzo","Project Manager","0413 861 303","P.O. Box 324, Ermington, NSW 2115&nbsp","pmilazzo@atsc4.com.au",,,"Traffic Control Systems Supply & Maintenance; a: SOED - Supply of On-Road Electronic Devices","OF, ON, ON-ROAD, ROAD, SOED","A"
"Alex Fraser Asphalt Pty Ltd","https://webapps.vicroads.vic.gov.au/vrne/prequal.nsf/b5fea222939e6f00ca25783e000334ef/e4a308a027ef687fca2572fd00814d2a?OpenDocument","Fresh","2026-01-21 15:54:56","Alex Fraser Asphalt Pty Ltd","(03) 93196918","(03) 93718150","Level 1, 50 Parkwest Drive, DERRIMUT VIC 3030","Mr Nathan Delaney","Project Engineer","0408 446 434","PO Box 17, LAVERTON VIC 3028&nbsp","admin-asphalt@alexfraser.com.au",,"General Works: Road Surfacing Asphalt (G2-RSA)",,"ROAD, RSA","A"
"All About Traffic Management Pty Ltd","https://webapps.vicroads.vic.gov.au/vrne/prequal.nsf/b5fea222939e6f00ca25783e000334ef/6d9c01524096146bca25778b00230ab0?OpenDocument","Fresh","2026-01-21 15:54:57","All About Traffic Management Pty Ltd","03 52480322","03 52480329","38 Grandview Pde, Moolap, Vic 3221","Mr Wayne Raeburn","General Manager","0459480322","Po Box 2090, Grovedale 2090&nbsp","allabouttraffic@bigpond.com",,,,,"A"
"All Roads Traffic Solutions Pty Ltd","https://webapps.vicroads.vic.gov.au/vrne/prequal.nsf/b5fea222939e6f00ca25783e000334ef/cd13e293cc8e4ad6ca257c0100091204?OpenDocument","Fresh","2026-01-21 15:54:57","All Roads Traffic Solutions Pty Ltd","0407 444 234","(03) 9078 1130","Suite 210, 585 Collins Street, Melbourne, VIC 3000","Miss Danielle Hauser","Managing Director","0407 444 234","""As Above"", &nbsp","info@allroadstraffic.com.au",,,,,"A"
"All Round Traffic Control Pty Ltd","https://webapps.vicroads.vic.gov.au/vrne/prequal.nsf/b5fea222939e6f00ca25783e000334ef/b8e28f68e0a49b9eca257c70000454dc?OpenDocument","Fresh","2026-01-21 15:54:58","All Round Traffic Control Pty Ltd",,,"Level 2, 256 Queens Street, Melbourne, VIC 3000","Mr Con Alexander","Managing Director","0477 293 458","""As Above"", &nbsp","allroundtraffic@gmail.com",,,,,"A"
"All Traffic Management  Services**","https://webapps.vicroads.vic.gov.au/vrne/prequal.nsf/b5fea222939e6f00ca25783e000334ef/e14b8969643ec07bca2575af0024772d?OpenDocument","Fresh","2026-01-21 15:54:58","Mollica Consultants Pty Ltd","0412 495 733","(03) 8390 2571","U4 47-51 Rebecca Drive, RAVENHALL VIC 3023","Mr Sal Mollica","Project Manager","0412 495 733","PO BOX 134 , DEER PARK VIC 3023&nbsp","admin@atmservices.com.au",,,,,"A"
"Allan Bowman &amp; Associates Pty Ltd","https://webapps.vicroads.vic.gov.au/vrne/prequal.nsf/b5fea222939e6f00ca25783e000334ef/2a6331d2b515c6feca256d0a00073619?OpenDocument","Fresh","2026-01-21 15:54:59","Allan Bowman & Associates Pty Ltd","9899 5133","9899 5144","191 B Middleborough Road , Box Hill VIC 3128","Mr Allan Bowman",,,"""As Above""&nbsp","mail@abapl.com.au",,,,"FPD1, FPD2, FPR, M1, M2, M3, ND1, ND2, ND3, RM1, RM2, RM3, RPD","A"
"Allens Asphalt Pty Ltd","https://webapps.vicroads.vic.gov.au/vrne/prequal.nsf/b5fea222939e6f00ca25783e000334ef/4bd074896ec0751aca25833e00775378?OpenDocument","Fresh","2026-01-21 15:55:00","Allens Asphalt Pty Ltd","(07) 3203 1566","(07) 3203 0156","34 - 40 Potassium Street, NARANGBA QLD 4053","Mr Kevin Macdonald","Area Manager - VIC","0417 782 934","PO Box 376, KALLANGUR QLD 4053&nbsp","kmacdonald@allensasphalt.com.au",,"Maintenance: Maintenance Pavements (M2-PW), Maintenance Works-Minor (M1); General Works: Road Surfacing Asphalt (G2-RSA), Road Surfacing Sprayed Seal (G2-RSS)",,"F150+, M1, M2-PW, PW, R1, ROAD, RSA, RSS, SEAL, WORKS-MINOR","A"
"Allequip Constructions Pty Ltd","https://webapps.vicroads.vic.gov.au/vrne/prequal.nsf/b5fea222939e6f00ca25783e000334ef/7619a91d65153823ca25800c001e9987?OpenDocument","Fresh","2026-01-21 15:55:00","Allequip Constructions Pty Ltd","(03) 5782 2800","(03) 5782 2617","200 Forbes-Moranding Road, KILMORE VIC 3764","Mr Martin Cornfoot","Director","0418 581 304","PO BOX 395, KILMORE VIC 3764&nbsp","Admin@allequip.com.au",,,,"F002, R2","A"
"Allgood Contracting Pty Ltd","https://webapps.vicroads.vic.gov.au/vrne/prequal.nsf/b5fea222939e6f00ca25783e000334ef/c06816117d4f1451ca2583460024398b?OpenDocument","Fresh","2026-01-21 15:55:01","Allgood Contracting Pty Ltd",,"03 9742 1904","2 Simpson Way, SEABROOK VIC 3028","Mr James Faranda","Director","0439 651 145","""As Above"", &nbsp","allgoodcontract@tpg.com.au",,,,,"A"
"Allied Schraven Group**","https://webapps.vicroads.vic.gov.au/vrne/prequal.nsf/b5fea222939e6f00ca25783e000334ef/5b84fd62692d350bca25755500069327?OpenDocument","Fresh","2026-01-21 15:55:01","Allied Schraven Pty Ltd","(03) 9305 5436","(03) 9305 5469","4 Rushwood Drive, CRAIGIEBURN VIC 3064","Mr Patrick Schraven","Managing Director","0412 751 220","""As Above"", &nbsp","pat@schravencivilgroup.com.au",,,,,"A"
"Allmark Linemarking Services Pty Ltd","https://webapps.vicroads.vic.gov.au/vrne/prequal.nsf/b5fea222939e6f00ca25783e000334ef/d868f489963740f9ca256eb40025bd08?OpenDocument","Fresh","2026-01-21 15:55:02","Allmark Linemarking Services Pty Ltd","(03) 9758 7897","(03) 9753 6667","7 Dempster Street, FERNTREE GULLY VIC 3156","Mr Sebastian Crutchfield","Managing Director","0434 954 000","PO Box 435 BC, FERNTREE GULLY VIC 3156&nbsp","allmark@allmarklinemarking.co.au",,"General Works: Linemarking (G2-LM), Surface Texturing-Water (G2-STW)",,"LM, STW, TEXTURING-WATER","A"
"Allstate Linemarking Services Pty Ltd","https://webapps.vicroads.vic.gov.au/vrne/prequal.nsf/b5fea222939e6f00ca25783e000334ef/31dd3d9c7e8c0c31ca2584800017d6c3?OpenDocument","Fresh","2026-01-21 15:55:03","Allstate Linemarking Services Pty Ltd","07 3386 1799","07 3386 1899","83 Christensen Road, STAPYLTON QLD 4207","Mr Gary Finn","National Manager","0448 152 292","PO Box 114, OXENFORD QLD 4210&nbsp","admin@allstatelinemarking.com",,"General Works: Linemarking (G2-LM)",,"LM","A"
"Alpha Facilities Group Road and Rail **","https://webapps.vicroads.vic.gov.au/vrne/prequal.nsf/b5fea222939e6f00ca25783e000334ef/97ab0339e663a107ca257f9d0000f50e?OpenDocument","Fresh","2026-01-21 15:55:03","Alpha Facilities Group Pty Ltd","1300 525 742",,"Suite 48, 21-23 Aristoc Road, GLEN WAVERLEY VIC 3150","Mr Julian Ustick","Senior Manager",,"P O Box 150, EAST KEW VIC 3102&nbsp","info@alphafacilities.com.au",,,,,"A"
"Alpha Indigenous Group Pty Ltd","https://webapps.vicroads.vic.gov.au/vrne/prequal.nsf/b5fea222939e6f00ca25783e000334ef/5d25774387c20d71ca25873b00811ebc?OpenDocument","Fresh","2026-01-21 15:55:04","Alpha Indigenous Group Pty Ltd","1300 525 742",,"8 International Square, TULLAMARINE VIC 3043","Kosta Farris",,,"""As Above"", &nbsp",,,,,,"A"
"Alpine Civil Pty Ltd","https://webapps.vicroads.vic.gov.au/vrne/prequal.nsf/b5fea222939e6f00ca25783e000334ef/cdce1bc03a16d589ca258009000f3c48?OpenDocument","Fresh","2026-01-21 15:55:04","Alpine Civil Pty Ltd","(03) 5779 1733","(03) 5779 1393","285 Dead Horse Lane, MANSFIELD VIC 3722","Mrs Sonja Ronald","IMS/OHS Administration Officer","0401 079 950","PO BOX 713, MANSFIELD VIC 3723&nbsp","info@alpinecivil.com.au",,,,"F010, R1","A"
"Altus Traffic Pty Ltd","https://webapps.vicroads.vic.gov.au/vrne/prequal.nsf/b5fea222939e6f00ca25783e000334ef/c31419fb452bdbe4ca2573a000211ae2?OpenDocument","Fresh","2026-01-21 15:55:05","Altus Traffic Pty Ltd","(03) 9316 9100","(03) 9316 9199","Unit 1/28-50 Cyanamid Street, LAVERTON NORTH VIC 3026","Mr Russell McAdam","General Manager - Victoria/Tasmania","0438 821 663","""As Above"", &nbsp","vic_operations@altustraffic.com.au",,,,,"A"
"Amey Consulting Australia Pty Ltd","https://webapps.vicroads.vic.gov.au/vrne/prequal.nsf/b5fea222939e6f00ca25783e000334ef/4533ddef24a78534ca25811c007d2791?OpenDocument","Fresh","2026-01-21 15:55:06","Amey Consulting Australia Pty Ltd","0800 521 660",,"Ashurst Australia, Lvl 26, 181 William Street , MELBOURNE VIC 3000","Mr Mian Zakir Hussain","Project Manager","+61 478 019 692","PO Box 424, , Rural View, QUEENSLAND 4740&nbsp","Mian.Hussain@ameyglobal.com.au","All road designs undertaken for, Rural Roads (RR) and Urban Roads (UR) to be verified by an independent pre qualified company with the provision of an accompanying verification report. The verification report to contain all identified review items in tabulated format as an Appendix.",,,"FPD1, FPD2, H-SIMPLE, M1, M2, ND1, ND2, PNM, PRN, RM1, RM2, ROAD, RR, SH, SS, STRUCTURES-SIMPLE, TAR, TPF, TSD, TSM, TTF, UR","A"
"AMG Systems Pty Ltd","https://webapps.vicroads.vic.gov.au/vrne/prequal.nsf/b5fea222939e6f00ca25783e000334ef/2833aa8fa7a52c53ca256d5800020e86?OpenDocument","Fresh","2026-01-21 15:55:06","AMG Systems Pty Ltd","(03) 9459 9923",,"106 Northern Road, HEIDELBERG WEST VIC 3081","Mr Jarrod Begg","General Manager","0458 801 166","PO BOX 498, ROSANNA VIC 3084&nbsp","admin@amgsystems.com.au","SVDL level conditional to wireless studs installation and first job being inspected.",,"Traffic Control Systems Supply & Maintenance; a: SCTV- Closed Circuit Television, SCTV - Communications, SSLC - Street Lighting & Conduit Installation, STCE - Traffic Control Equipment, STCE 1 - Traffic Control Equipment 1, STCE 2 - Traffic Control Equipment 2, STS - Traffic Signals, STS1 - Traffic Signals Installation, SVDL - Vehicle Detection Loops","SCTV, SSLC, STCE, STS, STS1, SVDL","A"
"AMH Civil Pty Ltd","https://webapps.vicroads.vic.gov.au/vrne/prequal.nsf/b5fea222939e6f00ca25783e000334ef/924e0a68ca9bf4bdca2586a100732990?OpenDocument","Fresh","2026-01-21 15:55:07","AMH Civil Pty Ltd",,,"2/11 Northpark Drive, SOMERTON VIC 3062","Mr Joseph Mansell","General Manager","0409 126 516","""As Above"", &nbsp","josephmansell@amhcivil.com.au",,,,"F010, R2","A"
"Amtek Solutions Pty Ltd","https://webapps.vicroads.vic.gov.au/vrne/prequal.nsf/b5fea222939e6f00ca25783e000334ef/06c3d62847b25b00ca257ea6007eccda?OpenDocument","Fresh","2026-01-21 15:55:08","Amtek Solutions Pty Ltd","(03) 9486 2279",,"50C Cherry Lane, LAVERTON NORTH VIC 3026","Mr Mohamed Hamza","Manager","0417 287 108","P O Box 280, CAUFIELD SOUTH VIC 3162&nbsp","mhamza@amteksol.com.au",,,"Traffic Control Systems Supply & Maintenance; a: SCTV- Closed Circuit Television, SCTV - Communications, SSLC - Street Lighting & Conduit Installation, STCE - Traffic Control Equipment, STCE 1 - Traffic Control Equipment 1, STCE 2 - Traffic Control Equipment 2, STS - Traffic Signals, STS1 - Traffic Signals Installation","SCTV, SSLC, STCE, STS, STS1","A"
"Anitech Pty Ltd","https://webapps.vicroads.vic.gov.au/vrne/prequal.nsf/b5fea222939e6f00ca25783e000334ef/18afecc7b84f3cd8ca2584880006bc24?OpenDocument","Fresh","2026-01-21 15:55:08","Anitech Pty Ltd","1300 802 163",,"Suite 118, 203-205 Blackburn Road, MOUNT WAVERLEY VIC 3149","Mr Fadi Alzubaidi","IMS Consultant","0424 871 972","""As Above"", &nbsp","fadi@anitechconsulting.com.au",,,,"E-EMS, EMS","A"
"Anthony Moodie &amp; Associates**","https://webapps.vicroads.vic.gov.au/vrne/prequal.nsf/b5fea222939e6f00ca25783e000334ef/abeb1015b33cd584ca258c590083456b?OpenDocument","Fresh","2026-01-21 15:55:09","Moodie Engineering Pty Ltd","03 9459 5561",,"79 Banksia Steet, Eaglemont Vic 3084","Mr Tony Moodie","Managing Director","0402 154 878","""As Above"", &nbsp","tony@moodieengineering.com.au",,,,"H-SIMPLE, SH","A"
"Anthony T. Lindsay Pty Ltd","https://webapps.vicroads.vic.gov.au/vrne/prequal.nsf/b5fea222939e6f00ca25783e000334ef/a215b6561b043a54ca2582d70023532e?OpenDocument","Fresh","2026-01-21 15:55:09","Anthony T. Lindsay Pty Ltd",,,"54 Burness Road, BENALLA VIC 3672","Mr Anthony Lindsay","Managing Director","0428 574 080","P O Box 125, BENALLA VIC 3672&nbsp","anthony.lindsay@anthonytlindsay.com.au",,"Maintenance: Maintenance Pavements (M2-PW)",,"M2-PW, PW","A"
"Apex Earthworks Pty Ltd","https://webapps.vicroads.vic.gov.au/vrne/prequal.nsf/b5fea222939e6f00ca25783e000334ef/584641593f354d70ca2584aa0000b43d?OpenDocument","Fresh","2026-01-21 15:55:10","Apex Earthworks Pty Ltd","(03) 5829 9966",,"907 Goulburn Valley Highway, CONGUPNA VIC 3633","Mr Hugh Ellis","Director","0409 077 151","PO Box 4066, SHEPPARTON VIC 3630&nbsp","info@apexearthworks.com.au",,,,"B1, F020, R3","A"
"Appia Pty Ltd","https://webapps.vicroads.vic.gov.au/vrne/prequal.nsf/b5fea222939e6f00ca25783e000334ef/3adb991d44bbf37bca25833f001a13ba?OpenDocument","Fresh","2026-01-21 15:55:11","Appia Pty Ltd","0488 004 273","03 9545 1901","30 Pickering Road, MULGRAVE VIC 3170","Mr Mark Nathanielsz","OHSEQ / Systems Co-ordinator","0434 229 004","PO Box 443, CHADSTONE CENTRE VIC 3148&nbsp","mark.nathanielsz@appiagroup.com.au",,,,"F002, R2","A"
"Applied Infrastructure Pty Ltd","https://webapps.vicroads.vic.gov.au/vrne/prequal.nsf/b5fea222939e6f00ca25783e000334ef/2793feefbea4096eca2584310015449a?OpenDocument","Fresh","2026-01-21 15:55:11","Applied Infrastructure Pty Ltd","03  9311 1002","03 9311 1006","46 Venture Drive, SUNSHINE WEST VIC 3020","Michael Parker","Electrical Manager",,"PO Box 642, SUNSHINE VIC 3020&nbsp",,"Prequalification STCE is conditional - The first three jobs completed will be inspected by the ITS Group for compliance with DoT specifications.",,"Traffic Control Systems Supply & Maintenance; a: SSLC - Street Lighting & Conduit Installation, STCE - Traffic Control Equipment, STCE 1 - Traffic Control Equipment 1, STCE 2 - Traffic Control Equipment 2","SSLC, STCE","A"
"Aquatech Civil and Plumbing Pty Ltd","https://webapps.vicroads.vic.gov.au/vrne/prequal.nsf/b5fea222939e6f00ca25783e000334ef/dc641af0754a8c46ca25843c000346fc?OpenDocument","Fresh","2026-01-21 15:55:12","Aquatech Civil and Plumbing Pty Ltd",,,"11 Mitchell Drive,, LEOPOLD VIC 3224","Mr Ross Lister","General Manager,","0428 456 678","PO Box 268, LEOPOLD VIC 3224&nbsp","admin@aquatechcivil.com.au",,,,"F002, R1","A"
"Aquenta Consulting Pty Ltd","https://webapps.vicroads.vic.gov.au/vrne/prequal.nsf/b5fea222939e6f00ca25783e000334ef/121d496fc031d7a3ca257e37000ddc02?OpenDocument","Fresh","2026-01-21 15:55:12","Aquenta Consulting Pty Ltd","(03) 8668 3000","(03) 9867 5950","11/452 Flinders Street, MELBOURNE VIC 3000","Mr Nick Monaghan","Associate Director","0458 214 584","""As Above"", &nbsp","MelbourneReception@jacobs.com",,,,"CE, COST","A"
"Arcadis Australia Pacific Pty Ltd","https://webapps.vicroads.vic.gov.au/vrne/prequal.nsf/b5fea222939e6f00ca25783e000334ef/a1d347f33e9ce2b7ca257ec80021f434?OpenDocument","Fresh","2026-01-21 15:55:13","Arcadis Australia Pacific Pty Ltd","(03)  8623 4000",,"Level 18, Queen & Collins Tower, 376-390 Collins Street, MELBOURNE VIC 3000","Mr Eranda Herath","Business Leader - VIC Mobility","0437 648 435","""As Above"", &nbsp","spec.apac@arcadis.com",,,,"AFF, AND, CE, CH, COST, CS, DBS, DES, DMR, DSD, EA, EAC, E-AFF, E-EAC, E-EMS, EESM, EESW, EMS, E-NMD, E-TFL, FD, FIR, FPD1, FPD2, FPR, FVA, FVR, GAIN, GT, GT-DES, GT-GWH, GT-INV, GWH, HC, H-COMPLEX, H-SIMPLE, INV, LAND, M1, M2, M3, M4, ND1, ND2, ND3, NET, NMD, OF, PAM, PAR, PE, PNM, PRL, PRN, PRS, RM1, RM2, RM3, RM4, ROAD, RPD, RPR, RR, SH, SS, ST, STRUCTURES-COMPLEX, STRUCTURES-SIMPLE, TAR, TCA, TFL, TLD, TM, TMC, TOF, TOS, TPF, TSD, TSM, TTF, UR, USE, WSRD","A"
"Arenco (NSW) Pty Ltd","https://webapps.vicroads.vic.gov.au/vrne/prequal.nsf/b5fea222939e6f00ca25783e000334ef/f1e68c5915281ef6ca2578a300297c06?OpenDocument","Fresh","2026-01-21 15:55:14","Arenco (NSW) Pty Ltd","02 9334 2444",,", 184 Adderley Street West, AUBURN NSW 2124","Mr Saba Lamyi-Arani","HSEQ and Systems Manager","0499 456 706","""As Above"", &nbsp","saba.lamyi-arani@arenco.com.au",,,,"B4, F050, R3","A"
"Argon Services Pty Ltd","https://webapps.vicroads.vic.gov.au/vrne/prequal.nsf/b5fea222939e6f00ca25783e000334ef/95a6941cba797196ca25855f0025905e?OpenDocument","Fresh","2026-01-21 15:55:14","Argon Services Pty Ltd","1300 560 323",,"Factory 3, 51 Rushdale Street, KNOXFIELD VIC 3180","Mr Adam Williamson",,"0410 400 321","""As Above"", &nbsp","office@argonservices.com.au",,,"Traffic Control Systems Supply & Maintenance; a: SSLC - Street Lighting & Conduit Installation, STCE 1 - Traffic Control Equipment 1","SSLC, STCE","A"
"Argot Consultants Pty Ltd","https://webapps.vicroads.vic.gov.au/vrne/prequal.nsf/b5fea222939e6f00ca25783e000334ef/ab688b1e51d90a6cca2578260006c9f5?OpenDocument","Fresh","2026-01-21 15:55:15","Argot Consultants Pty Ltd",,,"35 Candlebark Quadrant, ROWVILLE 3178","Mr Theo Niakolas","Director/Principal Engineer","0418 177 600","""As Above"", &nbsp","office@argot.com.au",,,,"H-SIMPLE, ROAD, RR, SH, TPF, UR","A"
"Argus Construction Services (Vic) Pty Ltd","https://webapps.vicroads.vic.gov.au/vrne/prequal.nsf/b5fea222939e6f00ca25783e000334ef/8f97077406ae7f59ca2586e3001c2ca4?OpenDocument","Fresh","2026-01-21 15:55:16","Argus Construction Services (Vic) Pty Ltd",,,"691 Burke Road, CAMBERWELL VIC 3124","Mr Toby Pinwill","Director","0448 800 650","""As Above"", &nbsp","toby@arguslabour.com.au",,,,,"A"
"Artcraft Pty Ltd","https://webapps.vicroads.vic.gov.au/vrne/prequal.nsf/b5fea222939e6f00ca25783e000334ef/59bfca19277073a1ca257856001e6db6?OpenDocument","Fresh","2026-01-21 15:55:16","Artcraft Pty Ltd","(03) 8762 8900","(03) 8762 8977","79 -81 Wedgewood Road, Hallam VIC 3803","Mr Warren Passingham","Manager","0432 247 035","PO Box 5001, HALLAM VIC 3803&nbsp","wpassingham@artcraft.com.au",,"General Works: Sign Erection-Major (G2-SE)",,"ERECTION-MAJOR, SE, SIGN","A"
"Arup Australia Pty Limited","https://webapps.vicroads.vic.gov.au/vrne/prequal.nsf/b5fea222939e6f00ca25783e000334ef/974b00bcc3787c24ca25841100814716?OpenDocument","Fresh","2026-01-21 15:55:17","Arup Australia Pty Limited","+61 3 9668 5577",,"Arup , Sky Park, , 1 Melbourne Quarter, 699 Collins Street, DOCKLANDS VIC 3008","Ms Yasmin Roper","Highways Leader ? Vic","+61 431 874 722","""As Above"", &nbsp","Yasmin.Roper@arup.com",,,"Traffic Data Collection: COS - Observational Surveys, CTM - Turning Movements, CTT - Travel Time Counts","AIR, AQMD, BI2, CF, CH, CI, COS, CS, CTM, CTT, DBS, DES, DMR, DSD, EA, EAC, E-AQMD, E-EAC, E-EMS, EES, EESM, EESW, EMS, E-NMD, EPM, FD, FIR, FPD1, FPD2, FPR, FVA, FVR, GT, GT-DES, GT-GWH, GT-INV, GT-PRE, GWH, HC, H-COMPLEX, H-SIMPLE, INV, LAND, M1, M2, M3, M4, ND1, ND2, ND3, NMD, OF, PAM, PAR, PE, PNM, PRE, PRL, PRN, PRS, PSA, PSAD, PSAM, RISK, RM, RM1, RM2, RM3, RM4, ROAD, RPD, RPR, RR, SH, SI, SS, ST, STRUCTURES-COMPLEX, STRUCTURES-SIMPLE, TAR, TCA, TIME, TLD, TM, TMC, TOF, TOS, TPF, TSD, TSM, TTF, UR, USE, WSRD","A"
"ASK Traffic Plans and Consulting**","https://webapps.vicroads.vic.gov.au/vrne/prequal.nsf/b5fea222939e6f00ca25783e000334ef/086a8d3ce6c2652bca2587ca00044842?OpenDocument","Fresh","2026-01-21 15:55:17","ASK Traffic Management Plans Pty Ltd",,,"27 Aspendale Crescent, SHEPPARTON VIC 3630","Mr Andrew Kyriakou","Director","0418 994 104","""As Above"", &nbsp","admin@askgroup.com.au",,,,,"A"
"ASPECT Studios Pty Ltd","https://webapps.vicroads.vic.gov.au/vrne/prequal.nsf/b5fea222939e6f00ca25783e000334ef/81452e5f2e8f7e42ca257ceb008009e7?OpenDocument","Fresh","2026-01-21 15:55:18","ASPECT Studios Pty Ltd","03 9417 6844","03 9417 6855","Level 1, 30-32 Easey Street, Collingwood VIC 3066","Ms Kirsten Bauer","Director","0409 590 221","""As Above"", &nbsp","kirsten.bauer@aspect.net.au",,,,"AND, LVI","A"
"Asphalt FX Pty Ltd","https://webapps.vicroads.vic.gov.au/vrne/prequal.nsf/b5fea222939e6f00ca25783e000334ef/ee3a35a678456e30ca257dab0011a032?OpenDocument","Fresh","2026-01-21 15:55:19","Asphalt FX Pty Ltd","(03) 9768 2154",,"3 Apoinga Street, DANDENONG SOUTH VIC 3175","Mr Ken McGivern","Business Development Manager","0408 218 538","""As Above"", &nbsp","admin@asphaltfx.com.au","G2-RSA conditional upon: 1. not tendering on VicRoads regionwide asphalt placement contracts. and 2. not tendering on asphalt placement contracts involving work on Highways or Freeways within VicRoads Metropolitan Regions.","General Works: General Works-Minor (G1), Road Surfacing Asphalt (G2-RSA)",,"ROAD, RSA, WORKS-MINOR","A"
"Asphalt Paving Services**","https://webapps.vicroads.vic.gov.au/vrne/prequal.nsf/b5fea222939e6f00ca25783e000334ef/518f063c2bfa8d64ca256fcb001f1779?OpenDocument","Fresh","2026-01-21 15:55:19","Hetekaro Pty Ltd","(03) 5229 3000","(03) 5229 9933","15 Dalton Street, SOUTH GEELONG VIC 3220","Mr Terence Breen","Operations Manger","0418 521 582","PO BOX 1225, GEELONG VIC 3220&nbsp","admin@aps1.com.au",,"General Works: General Works-Minor (G1)",,"WORKS-MINOR","A"
"Asphaltech**","https://webapps.vicroads.vic.gov.au/vrne/prequal.nsf/b5fea222939e6f00ca25783e000334ef/2f4d5317359087f3ca257328007c0515?OpenDocument","Fresh","2026-01-21 15:55:20","Asphaltech (Vic) Pty Ltd","(03) 9303 7833",,"138 Freight Drive, SOMERTON VIC 3062","Mr Costa Kremastas","General Manager","0429 692 955","""As Above"", &nbsp","costa@asphaltech.com.au",,"General Works: Road Surfacing Asphalt (G2-RSA)",,"ROAD, RSA","A"
"AT&amp;L and Associates Pty Ltd","https://webapps.vicroads.vic.gov.au/vrne/prequal.nsf/b5fea222939e6f00ca25783e000334ef/898789c07dbd5856ca2588c4000da9ab?OpenDocument","Fresh","2026-01-21 15:55:20","AT&L and Associates Pty Ltd","02 9439 1777",,"L7 153 Walker Street, NORTH SYDNEY NSW 2060","Mr Kunjan Patel","Associate ? Civil Engineering","0416 055 488","""As Above"", &nbsp","info@atl.net.au",,,,"H-SIMPLE, ROAD, RR, SH, WSRD","A"
"Aurecon Australasia Pty Ltd","https://webapps.vicroads.vic.gov.au/vrne/prequal.nsf/b5fea222939e6f00ca25783e000334ef/e6d57020de16fd69ca256d5c0019a0db?OpenDocument","Fresh","2026-01-21 15:55:21","Aurecon Australasia Pty Ltd","(03) 9975 3000","(03) 9975 3444","Aurecon Centre, , Lvl 8, 850 Collins Street, DOCKLANDS VIC 3008","Mr Li Chu tan","Client Leader","0432 168 511","PO BOX 23061, DOCKLANDS VIC 8012&nbsp",,,,,"AFF, AND, CF, CH, CI, CS, DBS, DES, DMR, DSD, EA, EAC, E-AFF, E-EAC, E-EMS, EESW, EMS, E-NMD, E-TFL, FD, FPD1, FPD2, FPR, GAIN, GT, GT-DES, GT-INV, GT-PRE, HC, H-COMPLEX, H-SIMPLE, INV, LAND, LU, M1, M2, M3, M4, ND1, ND2, ND3, NET, NMD, PAM, PE, PNM, PRE, PRL, PRN, PRS, PSAD, PSAM, RISK, RM, RM1, RM2, RM3, RM4, ROAD, RPD, RPR, RR, SH, SS, ST, STRUCTURES-COMPLEX, STRUCTURES-SIMPLE, TAR, TCA, TFL, TLD, TM, TMC, TOF, TOS, TPF, TSD, TSM, TTF, UR, USE, WSRD","A"
"Aus Group Alliance Pty Ltd","https://webapps.vicroads.vic.gov.au/vrne/prequal.nsf/b5fea222939e6f00ca25783e000334ef/9b2b4aa775554e15ca257bb700835881?OpenDocument","Fresh","2026-01-21 15:55:22","Aus Group Alliance Pty Ltd","(03) 8772 8200","(03) 9706 3753","5 Fiveways Blvd, Keysborough Vic 3173","Mr Robert Kent","Director","0420 317 196","""As Above"", &nbsp","info@ausg.com.au",,"General Works: Noise Wall (G2-NW)",,"NW, WALL","A"
"Ausland Landscaping**","https://webapps.vicroads.vic.gov.au/vrne/prequal.nsf/b5fea222939e6f00ca25783e000334ef/d7ca4cbcfc9ac2ceca25834d007cb07f?OpenDocument","Fresh","2026-01-21 15:55:22","Nickelodian Holdings Pty Ltd","03 9314 1985","03 9314 1987","17 Enterprise Way, SUNSHINE WEST VIC 3020","Mr Iain Murray","Managing Director","0418 538 821","""As Above"", &nbsp","iain@ausland.com.au",,"General Works: Landscaping (G2-LS)",,"LS","A"
"Ausroads Traffic Management Pty Ltd","https://webapps.vicroads.vic.gov.au/vrne/prequal.nsf/b5fea222939e6f00ca25783e000334ef/e063aab55ec400f0ca258300000040a4?OpenDocument","Fresh","2026-01-21 15:55:23","Ausroads Traffic Management Pty Ltd",,,"45 Norbury Road, BEACONSFIELD UPPER VIC 3808","Mr Anthony Nesci","Director","0419 144 464","P O Box 8, BEACONSFIELD UPPER VIC 3808&nbsp","anthony@ausroadstm.com.au",,,,,"A"
"Aussie Bridges Pty Ltd","https://webapps.vicroads.vic.gov.au/vrne/prequal.nsf/b5fea222939e6f00ca25783e000334ef/18bbc5798f9be0b4ca258408001f8557?OpenDocument","Fresh","2026-01-21 15:55:23","Aussie Bridges Pty Ltd","03 5443 7793",,"504 Hargreaves Street, BENDIGO VIC 3550","Mr John Grewar","Managing Director",,"""As Above"", &nbsp","admin@aussiebridges.com.au",,,,"SS, STRUCTURES-SIMPLE","A"
"AusSpan**","https://webapps.vicroads.vic.gov.au/vrne/prequal.nsf/b5fea222939e6f00ca25783e000334ef/8dece8c0d9586e88ca257a16001c3faa?OpenDocument","Fresh","2026-01-21 15:55:24","Tas-Span Pty Ltd","(03) 6426 2720","(03) 6426 2310","27-28 Faulkner Drive, LATROBE TAS 7307","Mr Peter Belbin","Asset Manager","0429 964 011","PO Box 225, Latrobe TAS 7303&nbsp","peterbelbin@ausspan.com.au",,,,"BI2","A"
"Austraffic**","https://webapps.vicroads.vic.gov.au/vrne/prequal.nsf/b5fea222939e6f00ca25783e000334ef/a1d21bf15092aa20ca257d720008356a?OpenDocument","Fresh","2026-01-21 15:55:25","Appian Way Enterprises Pty Ltd",,"(03) 9837 5100","Unit 1, 56 Centre Way, CROYDON SOUTH VIC 3136","Ms Louise Baldwin","Operations Manager","0431 131 313","""As Above"", &nbsp","louise@austraffic.com.au",,,"Traffic Data Collection: CCC - Classification Counts, COS - Observational Surveys, CSS - Speed Surveys, CTM - Turning Movements, CTT - Travel Time Counts","CCC, COS, CSS, CTM, CTT, DBS, DMR, DSD, TIME","A"
"Australian Barriers Pty Ltd","https://webapps.vicroads.vic.gov.au/vrne/prequal.nsf/b5fea222939e6f00ca25783e000334ef/22f9a8ea8f5b3b61ca257f24001757ba?OpenDocument","Fresh","2026-01-21 15:55:25","Australian Barriers Pty Ltd",,,"44 Lindon Court, TULLAMARINE VIC 3043","Mr David Galea","Director","0400 768 714","""As Above"", &nbsp","australianbarriers@outlook.com",,,,,"A"
"Australian Barriers Pty. Ltd.","https://webapps.vicroads.vic.gov.au/vrne/prequal.nsf/b5fea222939e6f00ca25783e000334ef/45949cd248f9b936ca258b030017956d?OpenDocument","Fresh","2026-01-21 15:55:26","Australian Barriers Pty. Ltd.",,,"44 Lindon Court, Tullamarine, VIC 3043","Mr David Galea","Director","0400 768 714","""As Above"", &nbsp","Australianbarriers@outlook.com",,"General Works: Guardfence (G2-GF), Guardfence (G2-GF)",,"GF","A"
"Australian Ecosystems Pty Ltd","https://webapps.vicroads.vic.gov.au/vrne/prequal.nsf/b5fea222939e6f00ca25783e000334ef/dbf0b975bde5f76eca257ce0007e837e?OpenDocument","Fresh","2026-01-21 15:55:27","Australian Ecosystems Pty Ltd","(03) 9673 0300",,"Unit 2 / 49 Bertie Street, Port Melbourne, VIC 3207","","Financial Controller",,"PO Box 583, Port Melbourne, VIC 3207&nbsp","accts@australianecosystems.com.au",,,,"AFF, AND, E-AFF, E-TFL, GAIN, NET, TFL","A"
"Australian Geotechnical Testing**","https://webapps.vicroads.vic.gov.au/vrne/prequal.nsf/b5fea222939e6f00ca25783e000334ef/961191e9d6b504beca2581d4001deda6?OpenDocument","Fresh","2026-01-21 15:55:27","K S Talbot Pty Ltd","1300 026 583",,"2/1109 Raglan Pde, Warrnambool Vic 3280","Mr Amir Farazmand","Senior Geotechnical Engineer","0419 349 906","PO Box 1018, Warrnambool 3280&nbsp","info@ausgeotest.com.au",,,,"AND, FPD1, M1, ND1, PT1, PT2, RM1","A"
"Australian Safety &amp; Environmental Services**","https://webapps.vicroads.vic.gov.au/vrne/prequal.nsf/b5fea222939e6f00ca25783e000334ef/58d238a0ad6d2fa5ca2578330018335d?OpenDocument","Fresh","2026-01-21 15:55:28","Workvision Pty Ltd",,,"Suite 408, 1 Princess St, KEW VIC 3101","Nino Capogreco","Director","0402 481 389","""As Above"", &nbsp","nino.capogreco@gmail.com",,,,"EAC, E-EAC","A"
"Australian Traffic Control (ATC) Pty Ltd","https://webapps.vicroads.vic.gov.au/vrne/prequal.nsf/b5fea222939e6f00ca25783e000334ef/75c736891d008593ca2573ca001683d6?OpenDocument","Fresh","2026-01-21 15:55:28","Australian Traffic Control (ATC) Pty Ltd","(03) 9739 5880","(03) 9727 3934","3 97-107 Canterbury Road, Kilsyth VIC 3137","Mr Brendan Woods","Director","0408 575 694","PO BOX 661, LILYDALE VIC 3140&nbsp","admin@atctraffic.com.au",,,,,"A"
"Avard Civil Pty Ltd","https://webapps.vicroads.vic.gov.au/vrne/prequal.nsf/b5fea222939e6f00ca25783e000334ef/08565c08c2843d1aca257ede00239dcc?OpenDocument","Fresh","2026-01-21 15:55:29","Avard Civil Pty Ltd","(03) 5441 6195",,"132 Strickland Road, BENDIGO VIC 3550","Ms Jane Hendy","Project Manager","0402 859 696","As above, &nbsp","jane.hendy@avard.com.au",,,,"B1, F015, R1","A"
"Axent Global**","https://webapps.vicroads.vic.gov.au/vrne/prequal.nsf/b5fea222939e6f00ca25783e000334ef/66fdc1e405e8d897ca256d5800020e97?OpenDocument","Fresh","2026-01-21 15:55:30","Axent Holdings Pty Ltd","(03) 9565 4500","(03) 9565 4590","3 Torteval Place, CLAYTON VIC 3168","Mr Peter Cestnik","General Manager","0467 600 223","PO BOX 463 , MULGRAVE NORTH VIC 3170&nbsp","peter@axent.com.au",,"General Works: General Works-Minor (G1), Sign Erection-Major (G2-SE)","Traffic Control Systems Supply & Maintenance; a: SCTV- Closed Circuit Television, SCTV - Communications, SOED - Supply of On-Road Electronic Devices","ERECTION-MAJOR, OF, ON, ON-ROAD, ROAD, SCTV, SE, SIGN, SOED, WORKS-MINOR","A"
"Axiom Consulting Engineers Pty Ltd","https://webapps.vicroads.vic.gov.au/vrne/prequal.nsf/b5fea222939e6f00ca25783e000334ef/e8e39656056d1f2fca258331001a6c70?OpenDocument","Fresh","2026-01-21 15:55:30","Axiom Consulting Engineers Pty Ltd","03 5331 2688",,"6 Webster Street, BALLARAT VIC 3350","Mr Chris Coughlan","Director","0422 328 214","""As Above"", &nbsp","admin@axiomce.com.au",,,,"FPD1, ND1, ROAD, RR, UR","A"
"Axis Infrastructure Pty Ltd","https://webapps.vicroads.vic.gov.au/vrne/prequal.nsf/b5fea222939e6f00ca25783e000334ef/6d3204f9867f693aca258a29000bc757?OpenDocument","Fresh","2026-01-21 15:55:31","Axis Infrastructure Pty Ltd","(+613) 9357 6793","(+613) 9357 8419","1A Randor Street, CAMPBELLFIELD VIC 3061","Ms Monica Bruce","Contract Administrator","0403 704 608","""As Above"", &nbsp","Monica@axiscivil.com.au",,,,"B3, F005, R2","A"
"A&amp;Y Associates Pty Ltd","https://webapps.vicroads.vic.gov.au/vrne/prequal.nsf/b5fea222939e6f00ca25783e000334ef/3917f577d3125750ca2584b70014589e?OpenDocument","Fresh","2026-01-21 15:55:31","A&Y Associates Pty Ltd","(03) 8754 8325",,"5/16 Network Drive, TRUGANINA VIC 3029","Mr Alvin Tan","Engineering Manager","0449 288 338","""As Above"", &nbsp","alvin@ayassociates.com.au",,,,"AND, PT1, PT2","A"
"Aldridge Traffic Systems Pty Ltd","https://webapps.vicroads.vic.gov.au/vrne/prequal.nsf/b5fea222939e6f00ca25783e000334ef/59717a6f363f5046ca257788000976a9?OpenDocument","Fresh","2026-01-21 15:55:32",,"(03) 9430 0222","(03) 9430 0244","31 Brisbane Street, ELTHAM VIC 3095","Mr Trevor Chambers","General Manager","0439 807 862","PO Box 828 , ELTHAM VIC 3095&nbsp","Trevor.chambers@trafficltd.com.au",,,"Traffic Control Systems Supply & Maintenance; a: SOED - Supply of On-Road Electronic Devices, SSLC - Street Lighting & Conduit Installation, STCE - Traffic Control Equipment, STCE 1 - Traffic Control Equipment 1, STCE 2 - Traffic Control Equipment 2, STS - Traffic Signals, STS1 - Traffic Signals Installation","OF, ON, ON-ROAD, ROAD, SOED, SSLC, STCE, STS, STS1","A"
