"Name","Url","DataSource","ExtractedDate","Firm_","Phone","Fax","Address","Contact","Position","Mobile_No_","PostalAddress","Email","Maintenance_and_General_Works_Group","PrequalificationCategories","Letter"
"T A Lindsay Pty Ltd","https://webapps.vicroads.vic.gov.au/vrne/prequal.nsf/b5fea222939e6f00ca25783e000334ef/913871928fbed43bca256d6b0025ca01?OpenDocument","Cached","2025-09-12 10:46:33","T A Lindsay Pty Ltd","(03) 5762 4893","(03) 5762 4893","Goomalibee Road, BENALLA VIC 3672","Mr Tom Lindsay","Director","0418 574 080","P O Box 296, BENALLA VIC 3672&nbsp","tom.a.lindsay@bigpond.com","General Works: Guardfence (G2-GF)","GF","T"
"Tac Design Pty Ltd","https://webapps.vicroads.vic.gov.au/vrne/prequal.nsf/b5fea222939e6f00ca25783e000334ef/dca838b6c5e10269ca2573ca001cad8c?OpenDocument","Cached","2025-09-12 10:46:34","Tac Design Pty Ltd","(03) 5255 2079",,"52 Somerdale Avenue, OCEAN GROVE VIC 3226","Mr Michael Stirrat","Director","0423 068 198","""As Above"", &nbsp","stirrat_1@optusnet.com.au",,"ROAD, RR, SRSA, TOS, TSD","T"
"Tambo Constructions Pty Ltd","https://webapps.vicroads.vic.gov.au/vrne/prequal.nsf/b5fea222939e6f00ca25783e000334ef/8badd9672f1ead11ca256d0b00172484?OpenDocument","Cached","2025-09-12 10:46:35","Tambo Constructions Pty Ltd","(03) 5156 4442","(03) 5156 4688","87 Swan Reach Road, SWAN REACH VIC 3903","Mr Kevin Whelan","Director","0418 516 488","""As Above""&nbsp","tamboconstruction@bigpond.com",,"B2, F001, R1","T"
"Target Zero Traffic**","https://webapps.vicroads.vic.gov.au/vrne/prequal.nsf/b5fea222939e6f00ca25783e000334ef/20e92082437ab12aca257d410028de66?OpenDocument","Cached","2025-09-12 10:46:35","Mayberry Constructions Pty Ltd","(03) 5940 3111","(03) 5940 3222","22 Industrial Drive, Pakenham VIC 3810","Mr Clint Mayberry","Director","0419 357 493","""As Above"", &nbsp","admin@tztraffic.com.au",,,"T"
"Tasman Associates Pty Ltd","https://webapps.vicroads.vic.gov.au/vrne/prequal.nsf/b5fea222939e6f00ca25783e000334ef/437d901cc2706a22ca257ba200078088?OpenDocument","Cached","2025-09-12 10:46:36","Tasman Associates Pty Ltd","(02) 4625 2517",,"2 Innes Street, Campbeltown, NSW 2560","Mr Ken Littlefair","General Manager","0421 197 300","""As Above"", &nbsp","info@tasmanassociates.com",,"BI2","T"
"Taylors Development Strategists Pty Ltd","https://webapps.vicroads.vic.gov.au/vrne/prequal.nsf/b5fea222939e6f00ca25783e000334ef/81f626ec7eccf3dfca2586ed00008617?OpenDocument","Cached","2025-09-12 10:46:37","Taylors Development Strategists Pty Ltd","(03) 9501 2800","(03) 9501 2844","8/270 Ferntree Gully Road, NOTTING HILL, VIC 3156","Mr Anthony Emmerson","General Manager - Infrastructure","0404 502 617","""As Above"", &nbsp",,,"H-SIMPLE, ROAD, RR, SH, UR","T"
"TBE Project Management Pty Ltd","https://webapps.vicroads.vic.gov.au/vrne/prequal.nsf/b5fea222939e6f00ca25783e000334ef/1a1414f3db5f7235ca257eff007e79c2?OpenDocument","Cached","2025-09-12 10:46:37","TBE Project Management Pty Ltd","(03) 5261 9763",,"44 Eton Road, TORQUAY VIC 3228","Mr Boyd Williams","Director","0456 118 127","""As Above"", &nbsp","tbeproject@bigpond.com",,"COMM, INC, ROAD, SEC, SMW, SRW","T"
"TDM Traffic Management**","https://webapps.vicroads.vic.gov.au/vrne/prequal.nsf/b5fea222939e6f00ca25783e000334ef/4d6b6ca7b4e791b0ca2587aa000ceab4?OpenDocument","Cached","2025-09-12 10:46:38","BGDTDM Pty Ltd","0477 872 077",,"10 Elsum Avenue, BAYSWATER NORTH VIC 3153","Mr Paul Geraghty","General Manager","0403 046 150","""As Above"", &nbsp","info@tdmtraffic.com.au",,,"T"
"Teleo Design Pty Ltd","https://webapps.vicroads.vic.gov.au/vrne/prequal.nsf/b5fea222939e6f00ca25783e000334ef/44a44ee6675bbdc9ca2583a200197667?OpenDocument","Cached","2025-09-12 10:46:39","Teleo Design Pty Ltd","02 8458 3400",,"17/19-23 Bridge Street, PYMBLE NSW 2073","Mr Eric Hooimeyer","Director","0413 006 174","""As Above"", &nbsp","info@teleodesign.com.au",,"SS, STRUCTURES-SIMPLE","T"
"Terraco Pty Ltd","https://webapps.vicroads.vic.gov.au/vrne/prequal.nsf/b5fea222939e6f00ca25783e000334ef/66582db688009a85ca25723b0020703a?OpenDocument","Cached","2025-09-12 10:46:39","Terraco Pty Ltd","(03) 5442 5799","(03) 5441 5506","24 Jewell Court, BENDIGO VIC 3550","Mr Paul Bowe","Director","0419 761 430","PO BOX 5507, BENDIGO VIC 3550&nbsp","paul@terraco.com.au",,"ROAD, RR","T"
"Tetra Tech Coffey Pty Ltd","https://webapps.vicroads.vic.gov.au/vrne/prequal.nsf/b5fea222939e6f00ca25783e000334ef/9c8ddb8a86ff230bca2588ee00191216?OpenDocument","Cached","2025-09-12 10:46:40","Tetra Tech Coffey Pty Ltd","03 9299 7000",,"Level 11, 2 Riverside Quay, , SOUTHBANK VIC 3006","Ms Kathryn Jones","Victoria, Tasmania & South Australia Operations Manager","0438 385 751","""As Above"", &nbsp","Kathryn.jones@tetratech.com",,"DES, GT, GT-DES, GT-INV, INV, M1, M2, ND1, ND2, RM1, RM2","T"
"TGM Group Pty Ltd","https://webapps.vicroads.vic.gov.au/vrne/prequal.nsf/b5fea222939e6f00ca25783e000334ef/161a25fc86038dacca2575da0023f062?OpenDocument","Cached","2025-09-12 10:46:40","TGM Group Pty Ltd","(03) 8862 9333","(03) 9819 4909","Level 1, 765 Glenferrie Road, HAWTHORN VIC 3122","Mr Don Parry","Managing Director","0407 367 621","PO Box 563W, Ballarat West, Vic 3350&nbsp",,,"H-SIMPLE, ROAD, RR, SH, SS, STRUCTURES-SIMPLE, UR","T"
"TGM Group Pty Ltd","https://webapps.vicroads.vic.gov.au/vrne/prequal.nsf/b5fea222939e6f00ca25783e000334ef/161a25fc86038dacca257bdc001f0f31?OpenDocument","Cached","2025-09-12 10:46:40","TGM Group Pty Ltd","(03) 8862 9333","(03) 9819 4909","Level 1, 765 Glenferrie Road, HAWTHORN VIC 3122","Mr Don Parry","Managing Director","0407 367 621","PO Box 563W, Ballarat West, Vic 3350&nbsp",,,"H-SIMPLE, ROAD, RR, SH, SS, STRUCTURES-SIMPLE, UR","T"
"The CSE Group Consulting Engineers Pty Ltd","https://webapps.vicroads.vic.gov.au/vrne/prequal.nsf/b5fea222939e6f00ca25783e000334ef/ab6e1294f33cfbfcca2587a7000f4d12?OpenDocument","Cached","2025-09-12 10:46:41","The CSE Group Consulting Engineers Pty Ltd","03 55624930",,",","Mr Scott Trotter","Engineer/Principal",,"""As Above"", &nbsp","scottt@thecsegroup.com.au",,"SS, STRUCTURES-SIMPLE","T"
"The Graffiti Eaters**","https://webapps.vicroads.vic.gov.au/vrne/prequal.nsf/b5fea222939e6f00ca25783e000334ef/92fbb6c308e19374ca257d53007fd09e?OpenDocument","Cached","2025-09-12 10:46:42","The Graffiti Eaters Pty Ltd","1300 305 308","1300 305 308","29 The Concord, BUNDOORA, VIC 3083","Mr Mark Mackenzie","Managing Director","0418 327 317","""As Above"", &nbsp","managingdirector@graffitieaters.com","Maintenance: Maintenance Works-Minor (M1); General Works: General Works-Minor (G1)","M1, WORKS-MINOR","T"
"The Traffic Plans Company Pty Ltd","https://webapps.vicroads.vic.gov.au/vrne/prequal.nsf/b5fea222939e6f00ca25783e000334ef/fc0d2dd428014effca257d30007ca348?OpenDocument","Cached","2025-09-12 10:46:42","The Traffic Plans Company Pty Ltd","03 9066 4417",,"22/73 Assembly Drive, DANDENONG SOUTH, VIC 3175","Mr Oguzhan Ozgur","Director","0434 853 166","""As Above"", &nbsp","oggy@trafficplans.company",,,"T"
"The Tree Doctor (Vic) Pty Ltd","https://webapps.vicroads.vic.gov.au/vrne/prequal.nsf/b5fea222939e6f00ca25783e000334ef/0e96bbc0c018039fca257c150006a4ac?OpenDocument","Cached","2025-09-12 10:46:43","The Tree Doctor (Vic) Pty Ltd","(03) 9782 5755","(03) 8796 3884","20 - 22 Milne Avenue, SEAFORD, VIC 3198","Mr Barry Chant","Director","0418 381 657","P O Box 2669, SEAFORD, VIC 3198&nbsp","barry@thetreedoctor.com.au",,,"T"
"The Trustee for Bricker Pipelines Trust**","https://webapps.vicroads.vic.gov.au/vrne/prequal.nsf/b5fea222939e6f00ca25783e000334ef/8bf4ce48a06ff13cca258530001e81ad?OpenDocument","Cached","2025-09-12 10:46:44","Bricker Pipelines Pty Ltd","03 9708 2731",,"25 Rutherford Road, SEAFORD VIC 3198","Ms Jodie Greenough","Office Manager","0413 604 252","""As Above"", &nbsp","gavin@brickerpl.com.au",,,"T"
"The University of Adelaide","https://webapps.vicroads.vic.gov.au/vrne/prequal.nsf/b5fea222939e6f00ca25783e000334ef/60ef71d3bb379ea3ca25826a0006e157?OpenDocument","Cached","2025-09-12 10:46:44","The University of Adelaide","( 08 ) 8313 5997","( 08 ) 8232 4995","The University of Adelaide, Centre for Automotive Safety Research, North Terrace Campus SA 5005","Ms Leonie Witter","Business Manager","0477 008 071","""As Above"", &nbsp","leonie@casr.adelaide.edu.au",,"DBS, PRS, ROAD","T"
"TM Pros**","https://webapps.vicroads.vic.gov.au/vrne/prequal.nsf/b5fea222939e6f00ca25783e000334ef/7a2f9ece6f28661aca2588020001ffba?OpenDocument","Cached","2025-09-12 10:46:45","Traffic Management Professionals Pty Ltd",,,"8/2a Snow Street, KEILOR PARK VIC 3042","Mr Shannon Rogers","Director","0418 471475","""As Above"", &nbsp","trafficmanagementpros@gmail.com",,,"T"
"TM Road Maintenance Services Pty Ltd","https://webapps.vicroads.vic.gov.au/vrne/prequal.nsf/b5fea222939e6f00ca25783e000334ef/1c6d2805bb263fe9ca2583080000677d?OpenDocument","Cached","2025-09-12 10:46:46","TM Road Maintenance Services Pty Ltd",,,"1/8 Purton Road, PAKENHAM VIC 3810","Mrs Terina Tukaki-Matthews","Director","0438 898 687","P O Box 263, OFFICER VIC 3809&nbsp","terina@tmroads.com","Maintenance: Maintenance Roadsides (M2-RW), Maintenance Works-Minor (M1); General Works: General Works-Minor (G1), Grass Cutting (G2-GC)","GC, M1, M2-RW, RW, WORKS-MINOR","T"
"TMP's 2 Go Pty Ltd","https://webapps.vicroads.vic.gov.au/vrne/prequal.nsf/b5fea222939e6f00ca25783e000334ef/07538dbe70a791fcca258456000c9be6?OpenDocument","Cached","2025-09-12 10:46:46","TMP's 2 Go Pty Ltd",,,"27 Banksia Street, MONTROSE VIC 3765","Mrs Nicole Foster","Managing Director","0414 939 070","""As Above"", &nbsp","tmps2go@gmail.com",,,"T"
"TNM Road Services Pty Ltd","https://webapps.vicroads.vic.gov.au/vrne/prequal.nsf/b5fea222939e6f00ca25783e000334ef/21bd896c97364cc8ca257f6b001ed51b?OpenDocument","Cached","2025-09-12 10:46:47","TNM Road Services Pty Ltd","(03) 9789 0396","(03) 9789 3447","785 Cranbourne Frankston Road, CRANBOURNE VIC 3977","Mr Tiziano Mattei","Director",,"P O Box 336, CRANBOURNE VIC 3977&nbsp","service@tnmroads.com.au",,,"T"
"Tompsett Asphalt Pty Ltd","https://webapps.vicroads.vic.gov.au/vrne/prequal.nsf/b5fea222939e6f00ca25783e000334ef/42dec51b5f7edfa2ca2585440002adbb?OpenDocument","Cached","2025-09-12 10:46:47","Tompsett Asphalt Pty Ltd",,,"21 Shaftesbury Street, ESSENDON VIC 3040","Mr Matthew Tompsett","Managing Director","0400140955","""As Above"", &nbsp","matthew@tompsettasphalt.com.au","Maintenance: Maintenance Pavements (M2-PW), Maintenance Works-Minor (M1); General Works: General Works-Minor (G1)","M1, M2-PW, PW, WORKS-MINOR","T"
"Tonkin Consulting Pty Ltd","https://webapps.vicroads.vic.gov.au/vrne/prequal.nsf/b5fea222939e6f00ca25783e000334ef/1169b311fa9e6291ca2584aa007fa996?OpenDocument","Cached","2025-09-12 10:46:48","Tonkin Consulting Pty Ltd","+61 3 5021 4486","08 8273 3110","97 Pine Avenue, MILDURA VIC 3500","Mr Nicholas Firth","Senior Engineer","0424 410 378","""As Above"", &nbsp","Nicholas.Firth@tonkin.com.au",,"H-SIMPLE, M1, ND1, ND2, PRN, RM1, ROAD, RR, SH, SS, STRUCTURES-SIMPLE, TOS, TSM","T"
"Tonkin &amp; Taylor Pty Ltd","https://webapps.vicroads.vic.gov.au/vrne/prequal.nsf/b5fea222939e6f00ca25783e000334ef/45877ef2e3530d80ca257afc0082c444?OpenDocument","Cached","2025-09-12 10:46:49","Tonkin & Taylor Pty Ltd","(03) 9863 8686",,"Level 3, 99 Coventry Street, SOUTHBANK, VIC 3006","Mr Sunny Singh","Senior Associate Pavement","0416 739 611","""As Above""&nbsp","ssingh@tonkintaylor.com.au",,"DES, GT, GT-DES, GT-GWH, GT-INV, GWH, INV, M1, M2, M3, M4, ND1, ND2, ND3, RM1, RM2, RM3, RM4","T"
"Toongabbie Contractors**","https://webapps.vicroads.vic.gov.au/vrne/prequal.nsf/b5fea222939e6f00ca25783e000334ef/e53b30bfa986e85bca257b7a0029e9a7?OpenDocument","Cached","2025-09-12 10:46:49","Graeme Moore Pty Ltd","(03) 51 924 204",,"2 Dodd Court, TRARALGON VIC 3844","Ms Leeann Moore","Office Manager","0429 924 379","P O Box 107, GLENGARRY VIC 3854&nbsp","tc@skymesh.com.au","Maintenance: Maintenance Bridges (M2-BW), Maintenance Works-Minor (M1); General Works: General Works-Minor (G1)","BW, M1, M2-BW, WORKS-MINOR","T"
"Toot Traffic Pty Ltd","https://webapps.vicroads.vic.gov.au/vrne/prequal.nsf/b5fea222939e6f00ca25783e000334ef/4941f437829f8280ca257a8c00083428?OpenDocument","Cached","2025-09-12 10:46:50","Toot Traffic Pty Ltd",,,"4/24 HARRINGTON ROAD, Warrnambool Vic, 3280","Mr Chris Keilar","Operations Manager","0488 018 551","4/24 HARRINGTON ROAD, Warrnambool Vic 3280&nbsp","manager@toottraffic.com.au",,,"T"
"Top Up Traffic**","https://webapps.vicroads.vic.gov.au/vrne/prequal.nsf/b5fea222939e6f00ca25783e000334ef/3b5670171b034154ca25873a007f0348?OpenDocument","Cached","2025-09-12 10:46:51","Top Up Labour Hire Pty Ltd","03 9769 6938","04 0184 8497","35 Kookaburra Street, FRANKSTON VIC 3199","Mr Steve Mellech","Managing Director",,"""As Above"", &nbsp","steve@topuplabourhire.com",,,"T"
"Total Property Developments (Vic) Pty Ltd","https://webapps.vicroads.vic.gov.au/vrne/prequal.nsf/b5fea222939e6f00ca25783e000334ef/c9b173db5afd4dbfca257c2400157b45?OpenDocument","Cached","2025-09-12 10:46:51","Total Property Developments (Vic) Pty Ltd","(03) 5443 7977","(02) 8282 4755","444 Hargreaves Street, BENDIGO VIC 3552","Mr Damien Cranage","Director","0413 383 498","P O Box 1278, Bendigo, VIC 3550&nbsp","damien@totalpd.com.au",,"H-SIMPLE, ROAD, RR, SH, UR","T"
"Total Traffic Management**","https://webapps.vicroads.vic.gov.au/vrne/prequal.nsf/b5fea222939e6f00ca25783e000334ef/1f08825d47fb69eaca258066001a929e?OpenDocument","Cached","2025-09-12 10:46:52","PMBL Pty Ltd",,,"4/5 Kilmarnock Court, HOPPERS CROSSING VIC 3029","Ms Lauren Fisher","Office Admin","0498 666 444","P O Box 56, WERRIBEE VIC &nbsp","ttm@totaltraffic.com.au",,,"T"
"Towong Shire Council","https://webapps.vicroads.vic.gov.au/vrne/prequal.nsf/b5fea222939e6f00ca25783e000334ef/d91dd5c2467ea516ca257f65001a2b35?OpenDocument","Cached","2025-09-12 10:46:53","Towong Shire Council","(02) 6071 5100","(02) 6071 2747","32 Towong Street, TALLANGATTA VIC 3700","Mr Wayne Carter","OHS & Risk Officer","0499 999 605","P O Box 55, TALLANGATTA VIC 3700&nbsp","info@towong.vic.gov.au",,,"T"
"Tracey Brunstrom &amp; Hammond Pty Ltd","https://webapps.vicroads.vic.gov.au/vrne/prequal.nsf/b5fea222939e6f00ca25783e000334ef/a17f7be9e69439f1ca258203001559f8?OpenDocument","Cached","2025-09-12 10:46:53","Tracey Brunstrom & Hammond Pty Ltd","(03) 8692 9800","(03) 8692 9899","Lvl 17, 500 Collins Street, MELBOURNE VIC 3000","Mr Jiong Zhu","Director","0411 360 199","""As Above"", &nbsp","jiongz@tbh.com.au",,"CE, COST","T"
"Tract Consultants Pty Ltd","https://webapps.vicroads.vic.gov.au/vrne/prequal.nsf/b5fea222939e6f00ca25783e000334ef/2a0bb2624cef57b3ca256d0a000763bb?OpenDocument","Cached","2025-09-12 10:46:54","Tract Consultants Pty Ltd","9429 6133","9429 5925","195 Lennox Street, Richmond VIC 3121","Mr Deiter Lim","Managing Director / Landscape Architect","0418 599 486","""As Above""&nbsp","melbourne@tract.net.au",,"AND, LVI, PSAD","T"
"Tradetech Services (Aust) Pty Ltd","https://webapps.vicroads.vic.gov.au/vrne/prequal.nsf/b5fea222939e6f00ca25783e000334ef/b2616b47ff33851dca257ffb00205aa8?OpenDocument","Cached","2025-09-12 10:46:54","Tradetech Services (Aust) Pty Ltd","9440 7500","9440 7600","10 Water Road, PRESTON VIC 3072","Ms Jane Emmerson","Administration Manager","0418 572 367","PO Box 2015, IVANHOE EAST 3079&nbsp","admin@tradetechservices.com.au","General Works: General Works-Minor (G1)","STCE, WORKS-MINOR","T"
"Traffcorp Pty Ltd","https://webapps.vicroads.vic.gov.au/vrne/prequal.nsf/b5fea222939e6f00ca25783e000334ef/cb34b11d4e0f9223ca25849d0017f1c6?OpenDocument","Cached","2025-09-12 10:46:55","Traffcorp Pty Ltd",,,"270 Power Road, ENDEAVOUR HILLS VIC 3802","Mr Munir Ismail Kakar","Construction Manager & QSE Manager","0449 177 864","""As Above"", &nbsp","michael@moconconstructiongroup.com.au",,,"T"
"Traffic Australia (Vic) Pty Ltd","https://webapps.vicroads.vic.gov.au/vrne/prequal.nsf/b5fea222939e6f00ca25783e000334ef/cb329d1cc31b6e72ca257e11007cf2f6?OpenDocument","Cached","2025-09-12 10:46:56","Traffic Australia (Vic) Pty Ltd","(03) 5446 1300","(03) 5446 1400","Factory 1/13 Baldock Court, EAGLEHAWK VIC 3556","Mr Bill Tilbbett","Operations Manager","0447 256 104","""As Above"", &nbsp","admin@trafficaus.com",,,"T"
"Traffic Boss**","https://webapps.vicroads.vic.gov.au/vrne/prequal.nsf/b5fea222939e6f00ca25783e000334ef/04b7577f6f4ce588ca25816100227e2b?OpenDocument","Cached","2025-09-12 10:46:56","Harrington Traffic Control Pty Ltd",,,"19 Tynan Road, TABLE TOP NSW 2640","Mr Jack Harrington","Director","0414 503 466","""As Above"", &nbsp","jack@trafficboss.com.au",,,"T"
"Traffic Control Victoria Pty Ltd","https://webapps.vicroads.vic.gov.au/vrne/prequal.nsf/b5fea222939e6f00ca25783e000334ef/325c99118b96f41bca25784f0006efc8?OpenDocument","Cached","2025-09-12 10:46:57","Traffic Control Victoria Pty Ltd","1300 239 502",,"75 Hudson Court, Keysborough VIC 3173","Mr Trent Makin","Senior Operations manager","0417 555 732","75 Hudson Court, Keysborough VIC &nbsp","admin@tcvictoria.com.au",,,"T"
"Traffic Diversions Group**","https://webapps.vicroads.vic.gov.au/vrne/prequal.nsf/b5fea222939e6f00ca25783e000334ef/3db8884ed42872f6ca257aa3001985b7?OpenDocument","Cached","2025-09-12 10:46:58","PTS Premium Traffic Solutions Pty Ltd","(03) 8782 0150, 1300 482 287","(03) 9364 9329","1 Jamieson Way, Dandenong South VIC 3175","Mr Ross McDonald","Director","0402 315 908","""As Above"", &nbsp","opsmanagers@trafficdiversions.com.au",,,"T"
"Traffic Group Australia Pty Ltd","https://webapps.vicroads.vic.gov.au/vrne/prequal.nsf/b5fea222939e6f00ca25783e000334ef/731bf0eeffe55921ca25776d0020ae1b?OpenDocument","Cached","2025-09-12 10:46:58","Traffic Group Australia Pty Ltd",,,"44 Abbotts Road, Dandenong South VIC 3175","Mr Jason Hickey","Victorian Branch Manager","0419 808 855","""As Above"", &nbsp","Vicjobs@trafficgrp.com.au",,,"T"
"Traffic Management Solutions Pty Ltd","https://webapps.vicroads.vic.gov.au/vrne/prequal.nsf/b5fea222939e6f00ca25783e000334ef/1bd183fc01ac079fca2586a900134573?OpenDocument","Cached","2025-09-12 10:46:59","Traffic Management Solutions Pty Ltd",,,"Suite 419, St Kilda Road Towers, 1 Queen Road, MELBOURNE VIC 3004","Mr Manoj Dhanorkar","Direcor and Principal Engineer","0414 446 423","""As Above""&nbsp","manoj@trafficmanagementsolutions.com.au",,"ROAD","T"
"Traffic Plans Australia Pty Ltd","https://webapps.vicroads.vic.gov.au/vrne/prequal.nsf/b5fea222939e6f00ca25783e000334ef/937f1e217d89d33bca25822f000ed373?OpenDocument","Cached","2025-09-12 10:46:59","Traffic Plans Australia Pty Ltd",,,"Level 5, 850 Collins Street , Docklands 8012","Mr Mark Stevens","National Operations Manager",,"PO Box 23350, Docklands 8012 Victoria, &nbsp","info@trafficplansaus.com.au",,,"T"
"Traffic Solutions Victoria**","https://webapps.vicroads.vic.gov.au/vrne/prequal.nsf/b5fea222939e6f00ca25783e000334ef/265e42738142890eca25851a000003ed?OpenDocument","Cached","2025-09-12 10:47:00","A1Tree Solutions Pty Ltd",,,"19 Kennedy's Drive, DELCOMBE VIC 3356","Mr Dale Smith","Business Manager","0428 588 077","PO Box 1525, BAKERY HILL vic 3354&nbsp","dale@a1trees.net",,,"T"
"Traffic Technique Pty Ltd","https://webapps.vicroads.vic.gov.au/vrne/prequal.nsf/b5fea222939e6f00ca25783e000334ef/4266a3248032fd03ca257988001ec486?OpenDocument","Cached","2025-09-12 10:47:01","Traffic Technique Pty Ltd","0459 020 633",,"236 - 238 Princes Way, DROUIN VIC 3818","Ms Kate Taylor","Operations Manager","0417 286 983","PO Box 677, DROUIN VIC 3820&nbsp","admin@traftech.com.au",,,"T"
"Traffic Utility Services**","https://webapps.vicroads.vic.gov.au/vrne/prequal.nsf/b5fea222939e6f00ca25783e000334ef/551d57d039e5b0c7ca25802900197087?OpenDocument","Cached","2025-09-12 10:47:01","Crackshot Boring Pty Ltd","(03) 9333 0246","(03) 9331 4899",",","Mr Ben Koutoukidis",,,"PO BOX 839, MOONEE PONDS VIC 3039&nbsp","traffic@tus.com.au",,,"T"
"Traffic Zone Pty Ltd","https://webapps.vicroads.vic.gov.au/vrne/prequal.nsf/b5fea222939e6f00ca25783e000334ef/5e379bdb85ad294dca257c400011a250?OpenDocument","Cached","2025-09-12 10:47:02","Traffic Zone Pty Ltd","(03)  9499 3255",,"173 Christmas Street, Alphington, Vic 3076","Mr John Danopoulos","Managing Director","0419 504 487","""As Above"", &nbsp","john@traffic-zone.com.au",,,"T"
"Trafficca Road Services Pty Ltd","https://webapps.vicroads.vic.gov.au/vrne/prequal.nsf/b5fea222939e6f00ca25783e000334ef/de6f6df5eebf1fa9ca258074007a1674?OpenDocument","Cached","2025-09-12 10:47:03","Trafficca Road Services Pty Ltd","(03) 8750 0920","(03) 8750 0921","46 Abbotts Road, DANDENONG SOUTH VIC 3175","Mr","General Manager Road Services",,"""As Above"", &nbsp","alan.davidson@trafficca.com.au",,,"T"
"Trafficking**","https://webapps.vicroads.vic.gov.au/vrne/prequal.nsf/b5fea222939e6f00ca25783e000334ef/ea6ad25690208781ca257d8700814077?OpenDocument","Cached","2025-09-12 10:47:03","13000 Roads Pty Ltd","1300 076 237","(02) 60212 562","271b Townsend Street, ALBURY NSW 2640","Ms Libby Brooks","Manager",,"P O Box 599, ALBURY NSW 2640&nbsp","admin@trafficking.com.au",,,"T"
"Trafficworks Pty Ltd","https://webapps.vicroads.vic.gov.au/vrne/prequal.nsf/b5fea222939e6f00ca25783e000334ef/3dfa74021754ec06ca25732a000b86a1?OpenDocument","Cached","2025-09-12 10:47:04","Trafficworks Pty Ltd","(03) 9490 5900","(03) 9490 5910","Suite 1 & 2, 132 Upper Heidelberg Road , IVANHOE VIC 3079","Mr Emmanuel Natalizio","Director","0400 639 302","PO Box 417, IVANHOE VIC 3079&nbsp","admin@trafficworks.com.au",,"DSD, HC, PAM, PRS, ROAD, TAR, TLD, TOF, TOS, TPF, TSD, TTF","T"
"Traffic.Com.Pty Ltd","https://webapps.vicroads.vic.gov.au/vrne/prequal.nsf/b5fea222939e6f00ca25783e000334ef/42f52d0d41b3f22cca257beb00254c64?OpenDocument","Cached","2025-09-12 10:47:05","Traffic.Com.Pty Ltd",,,"Shed 13/3 Muller Street, Baranduda, VIC 3691","Mr Kane Brown","Managing Director","0481392213","P O Box 510 , Wodonga Vic 3689&nbsp","traffic.com@icloud.com",,,"T"
"Traffix Group Pty Ltd","https://webapps.vicroads.vic.gov.au/vrne/prequal.nsf/b5fea222939e6f00ca25783e000334ef/95ebe66a4058c4d1ca256d0a0007645e?OpenDocument","Cached","2025-09-12 10:47:05","Traffix Group Pty Ltd","(03) 9822 2888",,"Level 28, 459 Collins Street, MELBOURNE VIC 3000","Mr Anthony Coyle","Director","0400 188 313","""As Above""&nbsp","anthony@traffixgroup.com.au",,"CCC, COS, CSS, CTM, CTT, DBS, DMR, FIR, FVA, HC, LAND, PAM, PRL, PRN, PRS, ROAD, ST, TAR, TIME, TOF, TOS, TPF, TSD, TSM, TTF, USE","T"
"TraffVic Solutions Pty Ltd","https://webapps.vicroads.vic.gov.au/vrne/prequal.nsf/b5fea222939e6f00ca25783e000334ef/416e85d7c99df1ddca25828f002c3c2f?OpenDocument","Cached","2025-09-12 10:47:06","TraffVic Solutions Pty Ltd",,,"120 Plumpton Road, DIGGERS REST VIC 3427","Mr Scott Eustace","Director","0435 740 032","""As Above"", &nbsp","info@traffvic.com.au",,,"T"
"Trafman Solutions Pty Ltd","https://webapps.vicroads.vic.gov.au/vrne/prequal.nsf/b5fea222939e6f00ca25783e000334ef/9833740a36a593c6ca25739900070ffb?OpenDocument","Cached","2025-09-12 10:47:07","Trafman Solutions Pty Ltd","(03) 9358 7770",,"28a Merri Concourse, CAMPBELLFIELD VIC 3061","Mr Aleksovski Jove",,"0448 306 135","""As Above"", &nbsp","info@trafman.com.au",,,"T"
"Trafx Pty Ltd","https://webapps.vicroads.vic.gov.au/vrne/prequal.nsf/b5fea222939e6f00ca25783e000334ef/7b231062ca255012ca257eca0083d2b8?OpenDocument","Cached","2025-09-12 10:47:07","Trafx Pty Ltd",,"(02) 6076 1594","29 Mildren Street, CORRYONG VIC 3707","Mr Martin John Dorman","Managing Director","0427 762 244","P O Box 204, CORRYONG VIC 3707&nbsp","admin@trafx.com.au",,,"T"
"Trans Traffic Survey**","https://webapps.vicroads.vic.gov.au/vrne/prequal.nsf/b5fea222939e6f00ca25783e000334ef/b2206545ec48c5b7ca258198007e1382?OpenDocument","Cached","2025-09-12 10:47:08","BVY Pty Ltd","1300 828 882","1300 838 883","62 Mason Street, NEWPORT VIC 3015","Dr Binh Vo","Project Director","0488 686 686","""As Above"", &nbsp","binh@trafficsurvey.com.au",,"CCC, CCS, COS, CSS, CTM, CTT, DBS, DMR, DSD, TIME","T"
"Transafe Pty Ltd","https://webapps.vicroads.vic.gov.au/vrne/prequal.nsf/b5fea222939e6f00ca25783e000334ef/76ec81cc3ff0faaaca257b810081acdf?OpenDocument","Cached","2025-09-12 10:47:09","Transafe Pty Ltd","1300 796 681",,"Unit 11/ 146 Power Street , HAWTHORN, VIC 3122","Mr Darren Vella","Director","0423 809 760","P O Box 6049, Hawthorn West, VIC 3122&nbsp","darren@transafe.com.au",,"ROAD","T"
"Transport for NSW","https://webapps.vicroads.vic.gov.au/vrne/prequal.nsf/b5fea222939e6f00ca25783e000334ef/92307aae79e8dc92ca258699007d639c?OpenDocument","Cached","2025-09-12 10:47:09","Transport for NSW","02 8202 2200","02 8202 2209","18 Lee Street, CHIPPENDALE NSW 2008","Mr Nicholas McMullen","Bridge Works Manager South West","0476839809","PO Box 484, WAGGA WAGGA NSW 2650&nbsp","Nicholas.r.mcmullen@transport.nsw.gov.au",,,"T"
"Transport &amp; Traffic Solutions Pty Ltd","https://webapps.vicroads.vic.gov.au/vrne/prequal.nsf/b5fea222939e6f00ca25783e000334ef/cb8ed0fe23ba10c7ca258108007f5748?OpenDocument","Cached","2025-09-12 10:47:10","Transport & Traffic Solutions Pty Ltd","(03) 9862 3479",,"3 Prentice Street, BRUNSWICK VIC 3056","Mr Michael Marsicovetere","Director","0437 682 170","""As Above"", &nbsp","michael@tatsolutions.com.au",,"PAM, PRN, PRS, ROAD, TAR, TOS, TPF, TSD, TTF","T"
"Tree Limits Pty Ltd","https://webapps.vicroads.vic.gov.au/vrne/prequal.nsf/b5fea222939e6f00ca25783e000334ef/425b1f530e96dc28ca257b8a0022a5c5?OpenDocument","Cached","2025-09-12 10:47:10","Tree Limits Pty Ltd","(03) 5152 7733",,"15 Collins Street, BAIRNSDALE, VIC 3875","Mr Troy Anderson","Director","0412 525 527","P O Box 170, BAIRNSDALE, VIC 3875&nbsp","treelimits@hotmail.com",,,"T"
"Tree Synergy Pty Ltd","https://webapps.vicroads.vic.gov.au/vrne/prequal.nsf/b5fea222939e6f00ca25783e000334ef/a8e143267da2a525ca25842a001dc13b?OpenDocument","Cached","2025-09-12 10:47:11","Tree Synergy Pty Ltd","03 5240 0570",,"1/117 Myers Street, GEELONG VIC 3220","Mr Matthew Deretic","Director","0488 176 006","""As Above"", &nbsp","mderetic@treesynergy.com.au","Maintenance: Maintenance Roadsides (M2-RW), Maintenance Works-Minor (M1); General Works: General Works-Minor (G1), Landscaping (G2-LS)","LS, M1, M2-RW, RW, WORKS-MINOR","T"
"Tree Watch**","https://webapps.vicroads.vic.gov.au/vrne/prequal.nsf/b5fea222939e6f00ca25783e000334ef/935836f566440e4dca2575010025c20e?OpenDocument","Cached","2025-09-12 10:47:12","LTW Pty Ltd","(03) 5289 5330","(03) 5289 5331","1 Beaurepaire Drive,, LORNE VIC 3232","Mr Stephen Bayley","Administration Manager","0419 102 925","PO Box 294, LORNE VIC 3232&nbsp","steve@treewatch.com.au","General Works: Landscaping (G2-LS)","LS","T"
"Tri-State Traffic Pty Ltd","https://webapps.vicroads.vic.gov.au/vrne/prequal.nsf/b5fea222939e6f00ca25783e000334ef/a97a1efa4c42eb66ca2579e2001d6ba7?OpenDocument","Cached","2025-09-12 10:47:12","Tri-State Traffic Pty Ltd","(03) 5023 4833","(03) 5023 3123","16 Logan Avenue, Mildura, VIC 3500","Ms Christinre Curry","OH&S Manager","0429 978 197","""As Above"", &nbsp","traffic07@bigpond.com",,,"T"
"Tridec Services Pty Ltd","https://webapps.vicroads.vic.gov.au/vrne/prequal.nsf/b5fea222939e6f00ca25783e000334ef/150eee09c76bc459ca25773800281792?OpenDocument","Cached","2025-09-12 10:47:13","Tridec Services Pty Ltd","(03) 8585 9800",,"Level 1, 336 Springvale Road, SPRINGVALE VIC 3171","Mr Glenn Matthews","Director, Design Engneer, Project Manager","0417 388 129","""As Above"", &nbsp","glennmatthews@tridec.com.au",,"TLD","T"
"TTM Consulting Pty Ltd","https://webapps.vicroads.vic.gov.au/vrne/prequal.nsf/b5fea222939e6f00ca25783e000334ef/8ec0724d923ee492ca257ca60002a75e?OpenDocument","Cached","2025-09-12 10:47:14","TTM Consulting Pty Ltd","(03) 9419 0911",,"Suite 9, 70-80 Wellington St , Collingwood, VIC 3066","Mr Simon Pender","Technician","0435 152 377","""As Above"", &nbsp","spender@ttmgroup.com.au",,"CCC, COS, CTM, CTT, E-NMD, NMD, TIME","T"
"TTM Consulting (VIC) Pty Ltd","https://webapps.vicroads.vic.gov.au/vrne/prequal.nsf/b5fea222939e6f00ca25783e000334ef/c0747f5f31b48ad2ca256d0a00076454?OpenDocument","Cached","2025-09-12 10:47:14","TTM Consulting (VIC) Pty Ltd","9419 0911","9415 9456","88 Langridge Street, COLLINGWOOD VIC 3066","Mr Damien Hancox","Director","0409 551 505","""As Above""&nbsp","ttmvic@ttmgroup.com.au",,"ROAD, TOS","T"
"TTW (VIC) PTY LTD","https://webapps.vicroads.vic.gov.au/vrne/prequal.nsf/b5fea222939e6f00ca25783e000334ef/e30aa3389e6cf6dfca25891900086f3d?OpenDocument","Cached","2025-09-12 10:47:15","TTW (VIC) PTY LTD","03 9602 1433","03 9602 4040","Level 13, 379 Collins Street, MELBOURNE VIC 3000","Mrs Joanne Ford","Office Manager",,"""As Above"", &nbsp","joanne.ford@ttw.com.au",,"H-SIMPLE, SH, WSRD","T"
"Turnbull Engineering Pty Ltd","https://webapps.vicroads.vic.gov.au/vrne/prequal.nsf/b5fea222939e6f00ca25783e000334ef/fcb96462320c3cf6ca258931007a603d?OpenDocument","Cached","2025-09-12 10:47:15","Turnbull Engineering Pty Ltd","02 8011 4800",,"Level 27, 400 George Street, SYDNEY NSW 2000","Mr Guy Pinzone","Director of Growth","0426 255 886","""As Above"", &nbsp","tenders@turnbullengineering.com.au",,"CH, H-COMPLEX, H-SIMPLE, ROAD, RR, SH, SS, STRUCTURES-SIMPLE","T"
"Tyco Safety Products**","https://webapps.vicroads.vic.gov.au/vrne/prequal.nsf/b5fea222939e6f00ca25783e000334ef/f8f06c90afb78b9aca256d5800020fd0?OpenDocument","Cached","2025-09-12 10:47:16","Tyco Projects (Australia) Pty Ltd","(03) 9538 7900","(03) 9872 4020","49 - 51 Rocco Drive, SCORESBY VIC 3179","Mr Mathew O?Sullivan","Services Branch Manager ? Traffic","0400 003 396","As above, &nbsp","mathew.osullivan@jci.com",,"OF, ON, ON-ROAD, ROAD, SCTV, SOED, SSLC, STCE, STS, STS1, STS2","T"
