"Name","Url","DataSource","ExtractedDate","Firm_","Phone","Fax","Address","Contact","Position","Mobile_No_","PostalAddress","Email","Letter"
"Lack Group Traffic Pty Ltd","https://webapps.vicroads.vic.gov.au/vrne/prequal.nsf/b5fea222939e6f00ca25783e000334ef/35ad3ab50d28bcf6ca25846c0016ffb9?OpenDocument","Cached","2025-09-12 10:43:20","Lack Group Traffic Pty Ltd","1300 205 579","07 5568 0812","Unit 2, 15 John Duncan Court , VARSITY LAKES QLD 4227","Mr David Lewin","Executive General Manager","0427 594 824","PO Box 1713, BURLEIGH HEADS QLD 4220&nbsp","lgc@lackgroup.com.au","L"
"Laing O'Rourke Australia Construction Pty Ltd","https://webapps.vicroads.vic.gov.au/vrne/prequal.nsf/b5fea222939e6f00ca25783e000334ef/bf5955ab529857e6ca25734500820b25?OpenDocument","Cached","2025-09-12 10:43:21","Laing O'Rourke Australia Construction Pty Ltd","(03) 9249 6400","(02) 9903 0333","HWT Tower, Level 20,, 40 City Road , SOUTHGATE VIC 3006","Mr Bruce Gidley","Business Development Manager, VIC/SA/QLD","0400 536 518","""As Above""&nbsp","bgidley@laingorourke.com.au","L"
"Lake &amp; Land Pty Ltd","https://webapps.vicroads.vic.gov.au/vrne/prequal.nsf/b5fea222939e6f00ca25783e000334ef/4ece35f803d90aeaca2574a9002454b2?OpenDocument","Cached","2025-09-12 10:43:21","Lake & Land Pty Ltd","(03) 5229 0811","(03) 5229 0899","178 Latrobe Terrace, GEELONG WEST VIC 3218","Mr Alexander Brunacci","Engineering Manager","0425702711","PO BOX 5, BARWON HEADS VIC 3227&nbsp","admin@lakeandland.com.au","L"
"Lanco Group Pty Ltd","https://webapps.vicroads.vic.gov.au/vrne/prequal.nsf/b5fea222939e6f00ca25783e000334ef/8d61b712ce8d5ac6ca2583da001da88f?OpenDocument","Cached","2025-09-12 10:43:22","Lanco Group Pty Ltd","1300 152 626","03 9467 9459","Level 2, Suite 26, 20 Enterprise Drive, Bundoora VIC 3083","Mr Tony Georgiadis","Director","0414 383 720","""As Above"", &nbsp","tony@lancogroup.com.au","L"
"Landair Surveys","https://webapps.vicroads.vic.gov.au/vrne/prequal.nsf/b5fea222939e6f00ca25783e000334ef/fb93e9148eb81bcaca256d0a00075481?OpenDocument","Cached","2025-09-12 10:43:22","Landair Surveys","9887 2888","9887 3897","Suite 1, 675 Boronia Road, WANTIRNA VIC 3152","Mr Erik Birzulis","Managing Director","0418 348 538","""As Above""&nbsp","info@landair.com.au","L"
"Landscape Plus (Vic) Pty Ltd","https://webapps.vicroads.vic.gov.au/vrne/prequal.nsf/b5fea222939e6f00ca25783e000334ef/653575af740329f2ca2583dd00025b20?OpenDocument","Cached","2025-09-12 10:43:23","Landscape Plus (Vic) Pty Ltd","03 9562 0659",,"58/1470 Ferntree Gully Road, Knoxfield VIC 3180","Mr Christopher Keay","Director","0417 000 209","""As Above"", &nbsp","info@landscapeplus.com.au","L"
"Landserv Pty Ltd","https://webapps.vicroads.vic.gov.au/vrne/prequal.nsf/b5fea222939e6f00ca25783e000334ef/0a42846834123728ca25774c00055ee9?OpenDocument","Cached","2025-09-12 10:43:24","Landserv Pty Ltd","(03) 5222 4173","(03) 5221 4173","14 Albert Street, GEELONG WEST VIC 3220","Mr Damien Chappell","Managing Director","0488 940 084","PO Box 1628, Geelong VIC 3220&nbsp","admin@landserv.com.au","L"
"Larrakia Bilirra Group Pty Ltd","https://webapps.vicroads.vic.gov.au/vrne/prequal.nsf/b5fea222939e6f00ca25783e000334ef/ec144dbe07de6dfcca25878300771fa8?OpenDocument","Cached","2025-09-12 10:43:24","Larrakia Bilirra Group Pty Ltd","1300 187 997",,"18 Doveton St N, BALLARAT CENTRAL VIC 3350","Mr Mathew Stokes","Managing Director","0400 407 750","Unit 1, 20 Ravenhall Way, RAVENHALL VIC 3023&nbsp","admin@larrakiabilirra.com.au","L"
"Leech Earthmoving Contracting Pty Ltd","https://webapps.vicroads.vic.gov.au/vrne/prequal.nsf/b5fea222939e6f00ca25783e000334ef/28b53f9dba06a367ca257b87007ba1d9?OpenDocument","Cached","2025-09-12 10:43:25","Leech Earthmoving Contracting Pty Ltd","(03) 5472 2944","(03) 5472 4631","27 Elizabeth Street, CASTLEMAINE, VIC 3450","Mr Darren Rice","General Manager / Director","0408 590 738","P O Box 425, CASTLEMAINE, VIC 3450&nbsp",,"L"
"Leed Engineering and Construction Pty Ltd","https://webapps.vicroads.vic.gov.au/vrne/prequal.nsf/b5fea222939e6f00ca25783e000334ef/c64dd1ee978a52b9ca25701100240c35?OpenDocument","Cached","2025-09-12 10:43:26","Leed Engineering and Construction Pty Ltd","08 8132 1044",,"95 King William Street, KENT TOWN SA 5067","Mr Paul Teakle","General Manager Operations","0419 819 897","Level 3, 8 Treadwell Street, ESSENDON NORTH VIC 3041&nbsp","pteakle@leed.net.au","L"
"Leegroup**","https://webapps.vicroads.vic.gov.au/vrne/prequal.nsf/b5fea222939e6f00ca25783e000334ef/1c23c75e114ecc7aca2586df001da0ce?OpenDocument","Cached","2025-09-12 10:43:26","Lee Brothers Fencing Pty Ltd","03 9484 4544",,"15 Beaufort Street, PRESTON VIC 3072","Mr Sunil Kumar","Director","0413 153 606","""As Above"", &nbsp","skumar@leegroup.com.au","L"
"LEKT Pty Ltd","https://webapps.vicroads.vic.gov.au/vrne/prequal.nsf/b5fea222939e6f00ca25783e000334ef/30d11a8f644b8675ca258831002075c1?OpenDocument","Cached","2025-09-12 10:43:27","LEKT Pty Ltd","0466 551 550",,"10 Hilbert Road, AIRPORT WEST VIC 3043","Mr Emir Ameti","Director",,"""As Above"", &nbsp","emir@lekt.com.au","L"
"Lincolne Scott (Vision Design Studio)**","https://webapps.vicroads.vic.gov.au/vrne/prequal.nsf/b5fea222939e6f00ca25783e000334ef/3198da9be9c80d31ca256d0a00076802?OpenDocument","Cached","2025-09-12 10:43:27","Lincolne Scott Australia Pty Ltd","(03) 9615 3222","(03) 9629 3929","121 King Street, MELBOURNE VIC 3000","Mr *Steve Brown","Director",,"""As Above""&nbsp","vdsmelb@visiondesign.com.au","L"
"Linct Group Pty Ltd","https://webapps.vicroads.vic.gov.au/vrne/prequal.nsf/b5fea222939e6f00ca25783e000334ef/8e2e1bb4c292e8a0ca2587c6000bcfd2?OpenDocument","Cached","2025-09-12 10:43:28","Linct Group Pty Ltd","03 5941 6244",,"Suite 7, 2-4 Purton Road, PAKENHAM VIC 3810","Ms Brincat Ebony","Business Unit Manager","0472 601 437","PO Box 444, PAKENHAM VIC 3810&nbsp","ebony.brincat@linctgroup.com.au","L"
"Little Rock Road Services**","https://webapps.vicroads.vic.gov.au/vrne/prequal.nsf/b5fea222939e6f00ca25783e000334ef/e0b99c9e11532fbbca2575cc002a39f0?OpenDocument","Cached","2025-09-12 10:43:29","Little Rock Consulting Services Pty Ltd","(03) 5781 0505","(03) 5781 0506","7 Maher Street, KILMORE VIC 3764","Mrs Shelly Biancon","Director","0417 309 607","PO Box 571, KILMORE VIC 3764&nbsp","ltlroc@bigpond.com","L"
"Livic Underground Construction Pty Ltd","https://webapps.vicroads.vic.gov.au/vrne/prequal.nsf/b5fea222939e6f00ca25783e000334ef/958ef6f16d43d972ca258af300110091?OpenDocument","Cached","2025-09-12 10:43:30","Livic Underground Construction Pty Ltd",,,"1 / 6 Carmen Street , Truganina VIC 3029","Mr Stuart White","Director","0422 844 343","""As Above"", &nbsp","stuart.white@livicunderground.com.au","L"
"LMS Unit Trust**","https://webapps.vicroads.vic.gov.au/vrne/prequal.nsf/b5fea222939e6f00ca25783e000334ef/7bf12cb4c9e216aeca257c070015089b?OpenDocument","Cached","2025-09-12 10:43:30","P J Lynch & Staff Pty Ltd","(03) 9437 2799","(03) 9437 2788","Factory 1/6 Candlebark Court, RESEARCH VIC 3095","Mr Mark Lynch","Director","0417 771 136","P O Box 1212, Research, VIC 3095&nbsp","mark@pjlynch.com.au","L"
"Loddon Shire Council","https://webapps.vicroads.vic.gov.au/vrne/prequal.nsf/b5fea222939e6f00ca25783e000334ef/d4eb66410a4f7828ca257042002228fe?OpenDocument","Cached","2025-09-12 10:43:31","Loddon Shire Council","(03) 5494 1222","(03) 5494 3003","41 High Street, WEDDERBURN VIC 3518","Mr Daniel Lloyd","Manager Works","0407 337 251","PO BOX 21, WEDDERBURN VIC 3518&nbsp","dlloyd@loddon.vic.gov.au","L"
"Loetis Pty Ltd","https://webapps.vicroads.vic.gov.au/vrne/prequal.nsf/b5fea222939e6f00ca25783e000334ef/17f327262ce58266ca258a3600823a88?OpenDocument","Cached","2025-09-12 10:43:31","Loetis Pty Ltd","0477 853 664",,"51 Little Fyans Street, SOUTH GEELONG VIC 3220","Mr Leigh Prossor","Director","0400 550 096","PO Box 867, GEELONG VIC 3220&nbsp","tom.r@loetis.com.au","L"
"LOJAC Civil Pty Ltd","https://webapps.vicroads.vic.gov.au/vrne/prequal.nsf/b5fea222939e6f00ca25783e000334ef/c047e8cabb0c8cd6ca2576bd001f70c0?OpenDocument","Cached","2025-09-12 10:43:32","LOJAC Civil Pty Ltd","(03) 9532 0200","(03) 9532 0800","35/148 Chesterville Road, MOORABBIN VIC 3188","Mr Craig Hosie","Director","0431 341 566","""As Above"", &nbsp","craighosie@lojac.com.au","L"
"Lowe Electrical**","https://webapps.vicroads.vic.gov.au/vrne/prequal.nsf/b5fea222939e6f00ca25783e000334ef/25ced43a1c58647aca25712c0015885b?OpenDocument","Cached","2025-09-12 10:43:33","C S Lowe Pty Ltd","(03) 9763 3833","(030 9753 2544","3/ 766 Burwood Highway, FERNTREE GULLY VIC 3156","Mr Brian Lowe","Director","0425 778 563","PO BOX 382, FERNTREE GULLY VIC 3156&nbsp","brian@loweelectrical.com.au","L"
"Lucas Total Contract Solutions Pty Ltd","https://webapps.vicroads.vic.gov.au/vrne/prequal.nsf/b5fea222939e6f00ca25783e000334ef/c64ffc2f15a99789ca257ca000030e70?OpenDocument","Cached","2025-09-12 10:43:33","Lucas Total Contract Solutions Pty Ltd","(08) 8179 4000","08 8358 3849","Brookside Road, Darlington, SA 5047","Mr Nick Matthews","General Manager","0418 824 382","P O Box 150, BRIGHTON, SA 5048&nbsp","enquries@lucastcs.com.au","L"
"L&amp;M Traffic Services Pty Ltd","https://webapps.vicroads.vic.gov.au/vrne/prequal.nsf/b5fea222939e6f00ca25783e000334ef/5bafbbcb5676d38cca25858900201b77?OpenDocument","Cached","2025-09-12 10:43:34",,"(03) 9768 2637","(03) 9768 2364","Unit 1, 2-4 Souffi Place, DANDENONG SOUTH VIC 3175","Mr Trevor Chambers","Regional Manager","0439 807 862","""As Above"", &nbsp","trevor.chambers@trafficltd.com.au","L"
